{
"type": "FeatureCollection",
"name": "fitness",
"crs": { "type": "name", "properties": { "name": "urn:ogc:def:crs:OGC:1.3:CRS84" } },
"features": [
{ "type": "Feature", "properties": { "id": "1", "name": "Maynooth University Gym" }, "geometry": { "type": "Point", "coordinates": [ -6.6036898, 53.3848801 ] } },
{ "type": "Feature", "properties": { "id": "2", "name": "Glenroyal Gym" }, "geometry": { "type": "Point", "coordinates": [ -6.5876188, 53.3794719 ] } },
{ "type": "Feature", "properties": { "id": "3", "name": "Anytime Fitness Gym" }, "geometry": { "type": "Point", "coordinates": [ -6.5839973, 53.380108 ] } }
]
}
