{
"type": "FeatureCollection",
"name": "fooddrinks",
"crs": { "type": "name", "properties": { "name": "urn:ogc:def:crs:OGC:1.3:CRS84" } },
"features": [
{ "type": "Feature", "properties": { "name": "McDonald's", "id": 1 }, "geometry": { "type": "Point", "coordinates": [ -6.581536115786606, 53.38171422743541 ] } },
{ "type": "Feature", "properties": { "name": "Yeah Burgr", "id": 2 }, "geometry": { "type": "Point", "coordinates": [ -6.593190973641914, 53.381077277755374 ] } },
{ "type": "Feature", "properties": { "name": "O’Neill’s", "id": 3 }, "geometry": { "type": "Point", "coordinates": [ -6.591771304585363, 53.381604216394749 ] } },
{ "type": "Feature", "properties": { "name": "The Roost", "id": 4 }, "geometry": { "type": "Point", "coordinates": [ -6.592078323339229, 53.380839786916276 ] } },
{ "type": "Feature", "properties": { "name": "Bistro 53", "id": 5 }, "geometry": { "type": "Point", "coordinates": [ -6.590930109167029, 53.38179167983354 ] } },
{ "type": "Feature", "properties": { "name": "Supermac's", "id": 6 }, "geometry": { "type": "Point", "coordinates": [ -6.590821282061504, 53.381857424430478 ] } },
{ "type": "Feature", "properties": { "name": "Brady’s", "id": 7 }, "geometry": { "type": "Point", "coordinates": [ -6.59035454780147, 53.381558185825895 ] } },
{ "type": "Feature", "properties": { "name": "Willow and Wild", "id": 8 }, "geometry": { "type": "Point", "coordinates": [ -6.590132316622586, 53.381301105437906 ] } },
{ "type": "Feature", "properties": { "name": "Avenue", "id": 9 }, "geometry": { "type": "Point", "coordinates": [ -6.588659654258718, 53.382011341833866 ] } },
{ "type": "Feature", "properties": { "name": "Picaderos", "id": 10 }, "geometry": { "type": "Point", "coordinates": [ -6.589503266878337, 53.382264502199888 ] } },
{ "type": "Feature", "properties": { "name": "O'Briens", "id": 11 }, "geometry": { "type": "Point", "coordinates": [ -6.582949364509317, 53.380935375968818 ] } },
{ "type": "Feature", "properties": { "name": "Newtown Inn", "id": 12 }, "geometry": { "type": "Point", "coordinates": [ -6.598446732494075, 53.372716490642468 ] } },
{ "type": "Feature", "properties": { "name": "Oak Alley", "id": 13 }, "geometry": { "type": "Point", "coordinates": [ -6.589599451153785, 53.3817683416422 ] } },
{ "type": "Feature", "properties": { "name": "Donatellos", "id": 14 }, "geometry": { "type": "Point", "coordinates": [ -6.589576895315296, 53.381737228416767 ] } },
{ "type": "Feature", "properties": { "name": "Costa", "id": 15 }, "geometry": { "type": "Point", "coordinates": [ -6.5854555361016, 53.38185239370469 ] } },
{ "type": "Feature", "properties": { "name": "Domino's", "id": 16 }, "geometry": { "type": "Point", "coordinates": [ -6.582890426020819, 53.380832001897026 ] } },
{ "type": "Feature", "properties": { "name": "camile", "id": 17 }, "geometry": { "type": "Point", "coordinates": [ -6.5834297, 53.38082585 ] } },
{ "type": "Feature", "properties": { "name": "Stone Haven", "id": 18 }, "geometry": { "type": "Point", "coordinates": [ -6.5930852, 53.3812698 ] } },
{ "type": "Feature", "properties": { "name": "McMahon’s", "id": 19 }, "geometry": { "type": "Point", "coordinates": [ -6.590202, 53.3816191 ] } },
{ "type": "Feature", "properties": { "name": "Romayo's", "id": 20 }, "geometry": { "type": "Point", "coordinates": [ -6.5915161, 53.3815518 ] } },
{ "type": "Feature", "properties": { "name": "Mizzoni Pizza", "id": 21 }, "geometry": { "type": "Point", "coordinates": [ -6.5914277, 53.3815757 ] } },
{ "type": "Feature", "properties": { "name": "Shoda Market Cafe", "id": 22 }, "geometry": { "type": "Point", "coordinates": [ -6.588441, 53.3799709 ] } },
{ "type": "Feature", "properties": { "name": "Royal City Restaurant", "id": 23 }, "geometry": { "type": "Point", "coordinates": [ -6.592966, 53.3811645 ] } },
{ "type": "Feature", "properties": { "name": "Apache Pizza", "id": 24 }, "geometry": { "type": "Point", "coordinates": [ -6.5929933, 53.3812226 ] } },
{ "type": "Feature", "properties": { "name": "Delhi Darbar", "id": 25 }, "geometry": { "type": "Point", "coordinates": [ -6.5931134, 53.3813571 ] } },
{ "type": "Feature", "properties": { "name": "Nutmeg", "id": 26 }, "geometry": { "type": "Point", "coordinates": [ -6.592672, 53.3813912 ] } },
{ "type": "Feature", "properties": { "name": "LANA", "id": 27 }, "geometry": { "type": "Point", "coordinates": [ -6.5876583, 53.373874 ] } },
{ "type": "Feature", "properties": { "name": "Subway", "id": 28 }, "geometry": { "type": "Point", "coordinates": [ -6.5998056, 53.383785 ] } },
{ "type": "Feature", "properties": { "name": "Coffee Mill", "id": 29 }, "geometry": { "type": "Point", "coordinates": [ -6.5933341, 53.3815635 ] } },
{ "type": "Feature", "properties": { "name": "Sásta (coffee/sandwiches)", "id": 30 }, "geometry": { "type": "Point", "coordinates": [ -6.594925, 53.3815562 ] } },
{ "type": "Feature", "properties": { "name": "Sásta By The River", "id": 31 }, "geometry": { "type": "Point", "coordinates": [ -6.5943118, 53.3815935 ] } },
{ "type": "Feature", "properties": { "name": "Orient", "id": 32 }, "geometry": { "type": "Point", "coordinates": [ -6.5924789, 53.3813793 ] } },
{ "type": "Feature", "properties": { "name": "O'Briens", "id": 33 }, "geometry": { "type": "Point", "coordinates": [ -6.5938876, 53.3819949 ] } },
{ "type": "Feature", "properties": { "name": "Costa", "id": 34 }, "geometry": { "type": "Point", "coordinates": [ -6.5944556, 53.3818459 ] } },
{ "type": "Feature", "properties": { "name": "Falò", "id": 35 }, "geometry": { "type": "Point", "coordinates": [ -6.5930115, 53.3810929 ] } },
{ "type": "Feature", "properties": { "name": "Phoenix Restaurant", "id": 36 }, "geometry": { "type": "Point", "coordinates": [ -6.6039394, 53.3842786 ] } },
{ "type": "Feature", "properties": { "name": "Food Guru", "id": 37 }, "geometry": { "type": "Point", "coordinates": [ -6.5921649, 53.3810749 ] } },
{ "type": "Feature", "properties": { "name": "Pizza Dog", "id": 38 }, "geometry": { "type": "Point", "coordinates": [ -6.592479, 53.3813007 ] } },
{ "type": "Feature", "properties": { "name": "Maynooth Students’ Union Bar", "id": 39 }, "geometry": { "type": "Point", "coordinates": [ -6.6037483, 53.3829413 ] } },
{ "type": "Feature", "properties": { "name": "Papa John's", "id": 40 }, "geometry": { "type": "Point", "coordinates": [ -6.5907089, 53.3817887 ] } },
{ "type": "Feature", "properties": { "name": "Starbucks", "id": 41 }, "geometry": { "type": "Point", "coordinates": [ -6.5990202, 53.3812695 ] } },
{ "type": "Feature", "properties": { "name": "Golden Palace Chinese Restaurant", "id": 42 }, "geometry": { "type": "Point", "coordinates": [ -6.5983209, 53.3729459 ] } },
{ "type": "Feature", "properties": { "name": "Romayo's", "id": 43 }, "geometry": { "type": "Point", "coordinates": [ -6.58799, 53.3741245 ] } },
{ "type": "Feature", "properties": { "name": "Beetroot", "id": 44 }, "geometry": { "type": "Point", "coordinates": [ -6.5915627, 53.3808181 ] } },
{ "type": "Feature", "properties": { "name": "Shaking Tang", "id": 45 }, "geometry": { "type": "Point", "coordinates": [ -6.5916926, 53.380978 ] } },
{ "type": "Feature", "properties": { "name": "Domino's", "id": 46 }, "geometry": { "type": "Point", "coordinates": [ -6.5829001, 53.3808274 ] } }
]
}
