{
"type": "FeatureCollection",
"name": "healthcare",
"crs": { "type": "name", "properties": { "name": "urn:ogc:def:crs:OGC:1.3:CRS84" } },
"features": [
{ "type": "Feature", "properties": { "name": "Maynooth Medical", "id": 1 }, "geometry": { "type": "Point", "coordinates": [ -6.590246652060179, 53.381994015853046 ] } },
{ "type": "Feature", "properties": { "name": "Manor Mills Medical", "id": 2 }, "geometry": { "type": "Point", "coordinates": [ -6.593611053051396, 53.382228518634115 ] } },
{ "type": "Feature", "properties": { "name": "Glenroyal Medical Centre", "id": 3 }, "geometry": { "type": "Point", "coordinates": [ -6.588338391860662, 53.380331220185631 ] } },
{ "type": "Feature", "properties": { "name": "Park Lodge Medical", "id": 4 }, "geometry": { "type": "Point", "coordinates": [ -6.586787260415169, 53.377745568891775 ] } },
{ "type": "Feature", "properties": { "name": "The Leinster Clinic", "id": 5 }, "geometry": { "type": "Point", "coordinates": [ -6.605715676734223, 53.382285057592284 ] } },
{ "type": "Feature", "properties": { "name": "Dr Denise Nolan", "id": 6 }, "geometry": { "type": "Point", "coordinates": [ -6.600563872244163, 53.37468163102902 ] } },
{ "type": "Feature", "properties": { "name": "Student Medical Center", "id": 7 }, "geometry": { "type": "Point", "coordinates": [ -6.598882330687351, 53.383691672882335 ] } }
]
}
