{"type":"FeatureCollection","features":[{"type":"Feature","geometry":{"type":"Polygon","coordinates":[[[-6.585206927887245,53.38624001807496],[-6.587351397152983,53.385153689293894],[-6.586673751084706,53.383424074970414],[-6.583851805729293,53.3827807952678],[-6.581707405895097,53.383867093589885],[-6.582384881982394,53.385596702071894],[-6.585206927887245,53.38624001807496]]]},"properties":{"hex_id":"89182c1a16bffff","Food&Drinks WalkTime":6.78,"Food&Drinks Nearest":"McDonald's","Food&Drinks NearestID":"1","Fitness WalkTime":9.12,"Fitness Nearest":"Anytime Fitness Gym","Fitness NearestID":"3","Supplies WalkTime":7.42,"Supplies Nearest":"Tesco Extra","Supplies NearestID":"way/30420550","Pharmacy WalkTime":7.29,"Pharmacy Nearest":"McCartan's","Pharmacy NearestID":"2","GP WalkTime":8.82,"GP Nearest":"Maynooth Medical","GP NearestID":"1","Average WalkTime":7.88,"Snap distance m":9}},{"type":"Feature","geometry":{"type":"Polygon","coordinates":[[[-6.576741133582894,53.38430989041068],[-6.578885581957197,53.383223705910694],[-6.578208258379168,53.3814940562156],[-6.57538665639795,53.380850596879576],[-6.573242277497171,53.38193675093186],[-6.573919431101699,53.38366639476615],[-6.576741133582894,53.38430989041068]]]},"properties":{"hex_id":"89182c1a167ffff","Food&Drinks WalkTime":6.76,"Food&Drinks Nearest":"McDonald's","Food&Drinks NearestID":"1","Fitness WalkTime":9.73,"Fitness Nearest":"Anytime Fitness Gym","Fitness NearestID":"3","Supplies WalkTime":7.11,"Supplies Nearest":"Tesco Extra","Supplies NearestID":"way/30420550","Pharmacy WalkTime":7.39,"Pharmacy Nearest":"McCartan's","Pharmacy NearestID":"2","GP WalkTime":12.83,"GP Nearest":"Maynooth Medical","GP NearestID":"1","Average WalkTime":8.77,"Snap distance m":13}},{"type":"Feature","geometry":{"type":"Polygon","coordinates":[[[-6.595707741061195,53.39335811386219],[-6.597852418541016,53.39227169367196],[-6.597174314764493,53.39054220309959],[-6.594351703524862,53.389899138529195],[-6.592207095436305,53.39098552824437],[-6.592885029193719,53.39271501300331],[-6.595707741061195,53.39335811386219]]]},"properties":{"hex_id":"89182c1a387ffff","Food&Drinks WalkTime":17.31,"Food&Drinks Nearest":"Coffee Mill","Food&Drinks NearestID":"29","Fitness WalkTime":25.02,"Fitness Nearest":"Maynooth University Gym","Fitness NearestID":"1","Supplies WalkTime":17.87,"Supplies Nearest":"ALDI","Supplies NearestID":"way/30633224","Pharmacy WalkTime":17.38,"Pharmacy Nearest":"Hickey's Pharmacy","Pharmacy NearestID":"4","GP WalkTime":16.39,"GP Nearest":"Manor Mills Medical","GP NearestID":"2","Average WalkTime":18.8,"Snap distance m":2}},{"type":"Feature","geometry":{"type":"Polygon","coordinates":[[[-6.586673751084706,53.383424074970414],[-6.588818102344918,53.38233766282479],[-6.58814043883567,53.38060800143788],[-6.585318594026815,53.37996475803582],[-6.583174312183011,53.381051139721855],[-6.583851805729293,53.3827807952678],[-6.586673751084706,53.383424074970414]]]},"properties":{"hex_id":"89182c1aed3ffff","Food&Drinks WalkTime":1.11,"Food&Drinks Nearest":"Costa","Food&Drinks NearestID":"15","Fitness WalkTime":4.05,"Fitness Nearest":"Anytime Fitness Gym","Fitness NearestID":"3","Supplies WalkTime":3.81,"Supplies Nearest":"Londis","Supplies NearestID":"node/359968059","Pharmacy WalkTime":3.92,"Pharmacy Nearest":"Mc Cormack's","Pharmacy NearestID":"1","GP WalkTime":3.94,"GP Nearest":"Maynooth Medical","GP NearestID":"1","Average WalkTime":3.36,"Snap distance m":9}},{"type":"Feature","geometry":{"type":"Polygon","coordinates":[[[-6.596039170400802,53.37453186374634],[-6.598183119079641,53.373445087726545],[-6.597505233385722,53.3717152793508],[-6.594683568914299,53.371072252822515],[-6.592539689577858,53.3721589983751],[-6.593217405368031,53.37388880092147],[-6.596039170400802,53.37453186374634]]]},"properties":{"hex_id":"89182c1ae43ffff","Food&Drinks WalkTime":4.59,"Food&Drinks Nearest":"Golden Palace Chinese Restaurant","Food&Drinks NearestID":"42","Fitness WalkTime":18.32,"Fitness Nearest":"Glenroyal Gym","Fitness NearestID":"2","Supplies WalkTime":4.69,"Supplies Nearest":"Spar","Supplies NearestID":"node/352674189","Pharmacy WalkTime":8.47,"Pharmacy Nearest":"St Patrick's Pharmacy","Pharmacy NearestID":"6","GP WalkTime":7.17,"GP Nearest":"Dr Denise Nolan","GP NearestID":"6","Average WalkTime":8.65,"Snap distance m":19}},{"type":"Feature","geometry":{"type":"Polygon","coordinates":[[[-6.567149919343404,53.36636863298097],[-6.569293735999311,53.365282320156574],[-6.568616969700818,53.36355236464077],[-6.565796556612703,53.362908727844236],[-6.563652809438434,53.363995010240615],[-6.564329405868259,53.365724959859875],[-6.567149919343404,53.36636863298097]]]},"properties":{"hex_id":"89182c1a8dbffff","Food&Drinks WalkTime":24.17,"Food&Drinks Nearest":"LANA","Food&Drinks NearestID":"27","Fitness WalkTime":35.85,"Fitness Nearest":"Glenroyal Gym","Fitness NearestID":"2","Supplies WalkTime":24.69,"Supplies Nearest":"Centra","Supplies NearestID":"node/354880889","Pharmacy WalkTime":25.05,"Pharmacy Nearest":"St Patrick's Pharmacy","Pharmacy NearestID":"6","GP WalkTime":28.99,"GP Nearest":"Park Lodge Medical","GP NearestID":"4","Average WalkTime":27.75,"Snap distance m":26}},{"type":"Feature","geometry":{"type":"Polygon","coordinates":[[[-6.57380647755792,53.389941167476195],[-6.575951161931878,53.38885514972848],[-6.575273873314764,53.38712559416761],[-6.572452070330744,53.38648206221464],[-6.570307455460608,53.3875680495158],[-6.570984574068269,53.38929759921476],[-6.57380647755792,53.389941167476195]]]},"properties":{"hex_id":"89182c1a10fffff","Food&Drinks WalkTime":14.22,"Food&Drinks Nearest":"McDonald's","Food&Drinks NearestID":"1","Fitness WalkTime":16.55,"Fitness Nearest":"Anytime Fitness Gym","Fitness NearestID":"3","Supplies WalkTime":14.86,"Supplies Nearest":"Tesco Extra","Supplies NearestID":"way/30420550","Pharmacy WalkTime":14.73,"Pharmacy Nearest":"McCartan's","Pharmacy NearestID":"2","GP WalkTime":16.26,"GP Nearest":"Maynooth Medical","GP NearestID":"1","Average WalkTime":15.32,"Snap distance m":119}},{"type":"Feature","geometry":{"type":"Polygon","coordinates":[[[-6.573242277497171,53.38193675093186],[-6.57538665639795,53.380850596879576],[-6.574709485305502,53.379120905985296],[-6.571888105270643,53.37847737501179],[-6.569743795856777,53.37956349862172],[-6.570420796988465,53.381293183645845],[-6.573242277497171,53.38193675093186]]]},"properties":{"hex_id":"89182c1ae93ffff","Food&Drinks WalkTime":14.27,"Food&Drinks Nearest":"Shoda Market Cafe","Food&Drinks NearestID":"22","Fitness WalkTime":18.21,"Fitness Nearest":"Glenroyal Gym","Fitness NearestID":"2","Supplies WalkTime":15.77,"Supplies Nearest":"SuperValu","Supplies NearestID":"node/335754695","Pharmacy WalkTime":15.81,"Pharmacy Nearest":"Callagy's","Pharmacy NearestID":"3","GP WalkTime":14.76,"GP Nearest":"Park Lodge Medical","GP NearestID":"4","Average WalkTime":15.76,"Snap distance m":32}},{"type":"Feature","geometry":{"type":"Polygon","coordinates":[[[-6.604505151733293,53.37646069283999],[-6.606649121054905,53.37537377252894],[-6.605970912935391,53.37364399957055],[-6.603148905403007,53.37300115273161],[-6.6010050053818,53.374088042564125],[-6.601683043590154,53.37581780971244],[-6.604505151733293,53.37646069283999]]]},"properties":{"hex_id":"89182c18597ffff","Food&Drinks WalkTime":9.61,"Food&Drinks Nearest":"Golden Palace Chinese Restaurant","Food&Drinks NearestID":"42","Fitness WalkTime":20.54,"Fitness Nearest":"Glenroyal Gym","Fitness NearestID":"2","Supplies WalkTime":6.44,"Supplies Nearest":"Spar","Supplies NearestID":"node/352674189","Pharmacy WalkTime":16.51,"Pharmacy Nearest":"Hickey's Pharmacy","Pharmacy NearestID":"4","GP WalkTime":4.11,"GP Nearest":"Dr Denise Nolan","GP NearestID":"6","Average WalkTime":11.44,"Snap distance m":12}},{"type":"Feature","geometry":{"type":"Polygon","coordinates":[[[-6.603039255156408,53.379277255717284],[-6.605183342479768,53.37819041874691],[-6.604505151733293,53.37646069283999],[-6.601683043590154,53.37581780971244],[-6.599539025582321,53.37690461620486],[-6.600217046399681,53.378634336301104],[-6.603039255156408,53.379277255717284]]]},"properties":{"hex_id":"89182c1a32fffff","Food&Drinks WalkTime":8.31,"Food&Drinks Nearest":"Starbucks","Food&Drinks NearestID":"41","Fitness WalkTime":15.32,"Fitness Nearest":"Maynooth University Gym","Fitness NearestID":"1","Supplies WalkTime":10.32,"Supplies Nearest":"ALDI","Supplies NearestID":"way/30633224","Pharmacy WalkTime":12.81,"Pharmacy Nearest":"Hickey's Pharmacy","Pharmacy NearestID":"4","GP WalkTime":12.1,"GP Nearest":"Manor Mills Medical","GP NearestID":"2","Average WalkTime":11.77,"Snap distance m":8}},{"type":"Feature","geometry":{"type":"Polygon","coordinates":[[[-6.610040837617988,53.38402219577101],[-6.612185063532125,53.3829352978286],[-6.611506567638275,53.38120565444637],[-6.608684015782448,53.38056291479672],[-6.606539859156983,53.381649782250435],[-6.607218185096295,53.38337941984076],[-6.610040837617988,53.38402219577101]]]},"properties":{"hex_id":"89182c1a377ffff","Food&Drinks WalkTime":9.6,"Food&Drinks Nearest":"Maynooth Students’ Union Bar","Food&Drinks NearestID":"39","Fitness WalkTime":12.22,"Fitness Nearest":"Maynooth University Gym","Fitness NearestID":"1","Supplies WalkTime":10.59,"Supplies Nearest":"ALDI","Supplies NearestID":"way/30633224","Pharmacy WalkTime":14.4,"Pharmacy Nearest":"Hickey's Pharmacy","Pharmacy NearestID":"4","GP WalkTime":4.39,"GP Nearest":"The Leinster Clinic","GP NearestID":"5","Average WalkTime":10.24,"Snap distance m":58}},{"type":"Feature","geometry":{"type":"Polygon","coordinates":[[[-6.584641083028584,53.37823505543102],[-6.586785246891846,53.37714859038614],[-6.586107718448651,53.37541884072762],[-6.58328619607209,53.37477556196204],[-6.5811421016235,53.375861996552096],[-6.58181946013442,53.377591740360856],[-6.584641083028584,53.37823505543102]]]},"properties":{"hex_id":"89182c1aec7ffff","Food&Drinks WalkTime":6.41,"Food&Drinks Nearest":"Romayo's","Food&Drinks NearestID":"43","Fitness WalkTime":11.74,"Fitness Nearest":"Glenroyal Gym","Fitness NearestID":"2","Supplies WalkTime":6.74,"Supplies Nearest":"Centra","Supplies NearestID":"node/354880889","Pharmacy WalkTime":6.37,"Pharmacy Nearest":"St Patrick's Pharmacy","Pharmacy NearestID":"6","GP WalkTime":3.82,"GP Nearest":"Park Lodge Medical","GP NearestID":"4","Average WalkTime":7.01,"Snap distance m":21}},{"type":"Feature","geometry":{"type":"Polygon","coordinates":[[[-6.589606991156956,53.37779179748764],[-6.591751106435598,53.37670521862833],[-6.591073408065417,53.37497546312996],[-6.588251764341185,53.37433229232906],[-6.586107718448651,53.37541884072762],[-6.586785246891846,53.37714859038614],[-6.589606991156956,53.37779179748764]]]},"properties":{"hex_id":"89182c1aecfffff","Food&Drinks WalkTime":6.8,"Food&Drinks Nearest":"Romayo's","Food&Drinks NearestID":"43","Fitness WalkTime":11.0,"Fitness Nearest":"Glenroyal Gym","Fitness NearestID":"2","Supplies WalkTime":7.13,"Supplies Nearest":"Centra","Supplies NearestID":"node/354880889","Pharmacy WalkTime":6.76,"Pharmacy Nearest":"St Patrick's Pharmacy","Pharmacy NearestID":"6","GP WalkTime":4.22,"GP Nearest":"Park Lodge Medical","GP NearestID":"4","Average WalkTime":7.18,"Snap distance m":16}},{"type":"Feature","geometry":{"type":"Polygon","coordinates":[[[-6.614437621546617,53.375572180599896],[-6.616581493394236,53.37448503264739],[-6.61590294546834,53.37275524809857],[-6.61308069559295,53.37211261729082],[-6.610936892988582,53.373199734752916],[-6.611615271013951,53.374929513511475],[-6.614437621546617,53.375572180599896]]]},"properties":{"hex_id":"89182c1858bffff","Food&Drinks WalkTime":17.84,"Food&Drinks Nearest":"Golden Palace Chinese Restaurant","Food&Drinks NearestID":"42","Fitness WalkTime":28.77,"Fitness Nearest":"Glenroyal Gym","Fitness NearestID":"2","Supplies WalkTime":14.67,"Supplies Nearest":"Spar","Supplies NearestID":"node/352674189","Pharmacy WalkTime":24.74,"Pharmacy Nearest":"Hickey's Pharmacy","Pharmacy NearestID":"4","GP WalkTime":12.34,"GP Nearest":"Dr Denise Nolan","GP NearestID":"6","Average WalkTime":19.67,"Snap distance m":70}},{"type":"Feature","geometry":{"type":"Polygon","coordinates":[[[-6.595140273791807,53.38535355470241],[-6.597284645818528,53.38426699826101],[-6.596606659804162,53.38253737228425],[-6.593784471731084,53.38189430856888],[-6.591640169078753,53.382980834539424],[-6.592317985122721,53.384710454694485],[-6.595140273791807,53.38535355470241]]]},"properties":{"hex_id":"89182c1a3afffff","Food&Drinks WalkTime":3.21,"Food&Drinks Nearest":"Coffee Mill","Food&Drinks NearestID":"29","Fitness WalkTime":10.91,"Fitness Nearest":"Maynooth University Gym","Fitness NearestID":"1","Supplies WalkTime":3.77,"Supplies Nearest":"ALDI","Supplies NearestID":"way/30633224","Pharmacy WalkTime":3.28,"Pharmacy Nearest":"Hickey's Pharmacy","Pharmacy NearestID":"4","GP WalkTime":2.28,"GP Nearest":"Manor Mills Medical","GP NearestID":"2","Average WalkTime":4.69,"Snap distance m":1}},{"type":"Feature","geometry":{"type":"Polygon","coordinates":[[[-6.569180300627442,53.37155827025374],[-6.571324304671573,53.37047201035246],[-6.570647403480392,53.36874214301557],[-6.56782666814205,53.36809854146605],[-6.565682733581323,53.36918477093454],[-6.566359464873136,53.37091463238367],[-6.569180300627442,53.37155827025374]]]},"properties":{"hex_id":"89182c1aea3ffff","Food&Drinks WalkTime":20.98,"Food&Drinks Nearest":"LANA","Food&Drinks NearestID":"27","Fitness WalkTime":32.66,"Fitness Nearest":"Glenroyal Gym","Fitness NearestID":"2","Supplies WalkTime":21.5,"Supplies Nearest":"Centra","Supplies NearestID":"node/354880889","Pharmacy WalkTime":21.87,"Pharmacy Nearest":"St Patrick's Pharmacy","Pharmacy NearestID":"6","GP WalkTime":25.8,"GP Nearest":"Park Lodge Medical","GP NearestID":"4","Average WalkTime":24.56,"Snap distance m":92}},{"type":"Feature","geometry":{"type":"Polygon","coordinates":[[[-6.582272875085415,53.39187151295926],[-6.584417580391751,53.39078535092254],[-6.583739969226428,53.389055830741356],[-6.580917822769318,53.38841247843778],[-6.578773186924831,53.38949861001664],[-6.579450628073216,53.39122812435522],[-6.582272875085415,53.39187151295926]]]},"properties":{"hex_id":"89182c1a147ffff","Food&Drinks WalkTime":11.55,"Food&Drinks Nearest":"Avenue","Food&Drinks NearestID":"9","Fitness WalkTime":17.4,"Fitness Nearest":"Anytime Fitness Gym","Fitness NearestID":"3","Supplies WalkTime":12.0,"Supplies Nearest":"Londis","Supplies NearestID":"node/359968059","Pharmacy WalkTime":12.26,"Pharmacy Nearest":"Mc Cormack's","Pharmacy NearestID":"1","GP WalkTime":12.29,"GP Nearest":"Maynooth Medical","GP NearestID":"1","Average WalkTime":13.1,"Snap distance m":13}},{"type":"Feature","geometry":{"type":"Polygon","coordinates":[[[-6.60947135041239,53.376016547642585],[-6.611615271013951,53.374929513511475],[-6.610936892988582,53.373199734752916],[-6.608114764265111,53.37255699592392],[-6.605970912935391,53.37364399957055],[-6.606649121054905,53.37537377252894],[-6.60947135041239,53.376016547642585]]]},"properties":{"hex_id":"89182c18583ffff","Food&Drinks WalkTime":13.61,"Food&Drinks Nearest":"Golden Palace Chinese Restaurant","Food&Drinks NearestID":"42","Fitness WalkTime":24.54,"Fitness Nearest":"Glenroyal Gym","Fitness NearestID":"2","Supplies WalkTime":10.44,"Supplies Nearest":"Spar","Supplies NearestID":"node/352674189","Pharmacy WalkTime":20.51,"Pharmacy Nearest":"Hickey's Pharmacy","Pharmacy NearestID":"4","GP WalkTime":8.11,"GP Nearest":"Dr Denise Nolan","GP NearestID":"6","Average WalkTime":15.44,"Snap distance m":6}},{"type":"Feature","geometry":{"type":"Polygon","coordinates":[[[-6.570647403480392,53.36874214301557],[-6.572791289604561,53.367655799757785],[-6.572114370924517,53.365925885385515],[-6.569293735999311,53.365282320156574],[-6.567149919343404,53.36636863298097],[-6.56782666814205,53.36809854146605],[-6.570647403480392,53.36874214301557]]]},"properties":{"hex_id":"89182c1aeafffff","Food&Drinks WalkTime":17.9,"Food&Drinks Nearest":"LANA","Food&Drinks NearestID":"27","Fitness WalkTime":29.58,"Fitness Nearest":"Glenroyal Gym","Fitness NearestID":"2","Supplies WalkTime":18.43,"Supplies Nearest":"Centra","Supplies NearestID":"node/354880889","Pharmacy WalkTime":18.79,"Pharmacy Nearest":"St Patrick's Pharmacy","Pharmacy NearestID":"6","GP WalkTime":22.72,"GP Nearest":"Park Lodge Medical","GP NearestID":"4","Average WalkTime":21.49,"Snap distance m":12}},{"type":"Feature","geometry":{"type":"Polygon","coordinates":[[[-6.58814043883567,53.38060800143788],[-6.590284672100172,53.37952150593284],[-6.589606991156956,53.37779179748764],[-6.586785246891846,53.37714859038614],[-6.584641083028584,53.37823505543102],[-6.585318594026815,53.37996475803582],[-6.58814043883567,53.38060800143788]]]},"properties":{"hex_id":"89182c1aec3ffff","Food&Drinks WalkTime":2.74,"Food&Drinks Nearest":"Shoda Market Cafe","Food&Drinks NearestID":"22","Fitness WalkTime":6.68,"Fitness Nearest":"Glenroyal Gym","Fitness NearestID":"2","Supplies WalkTime":4.24,"Supplies Nearest":"SuperValu","Supplies NearestID":"node/335754695","Pharmacy WalkTime":4.28,"Pharmacy Nearest":"Callagy's","Pharmacy NearestID":"3","GP WalkTime":3.23,"GP Nearest":"Park Lodge Medical","GP NearestID":"4","Average WalkTime":4.24,"Snap distance m":0}},{"type":"Feature","geometry":{"type":"Polygon","coordinates":[[[-6.6010050053818,53.374088042564125],[-6.603148905403007,53.37300115273161],[-6.602470849810623,53.37127133853639],[-6.599649064093094,53.370628419991476],[-6.597505233385722,53.3717152793508],[-6.598183119079641,53.373445087726545],[-6.6010050053818,53.374088042564125]]]},"properties":{"hex_id":"89182c1ae4bffff","Food&Drinks WalkTime":5.04,"Food&Drinks Nearest":"Golden Palace Chinese Restaurant","Food&Drinks NearestID":"42","Fitness WalkTime":21.22,"Fitness Nearest":"Glenroyal Gym","Fitness NearestID":"2","Supplies WalkTime":1.82,"Supplies Nearest":"Spar","Supplies NearestID":"node/352674189","Pharmacy WalkTime":13.19,"Pharmacy Nearest":"St Patrick's Pharmacy","Pharmacy NearestID":"6","GP WalkTime":4.04,"GP Nearest":"Dr Denise Nolan","GP NearestID":"6","Average WalkTime":9.06,"Snap distance m":2}},{"type":"Feature","geometry":{"type":"Polygon","coordinates":[[[-6.583174312183011,53.381051139721855],[-6.585318594026815,53.37996475803582],[-6.584641083028584,53.37823505543102],[-6.58181946013442,53.377591740360856],[-6.579675247720424,53.37867809159267],[-6.580352588768399,53.38040778834715],[-6.583174312183011,53.381051139721855]]]},"properties":{"hex_id":"89182c1aed7ffff","Food&Drinks WalkTime":9.07,"Food&Drinks Nearest":"Shoda Market Cafe","Food&Drinks NearestID":"22","Fitness WalkTime":13.01,"Fitness Nearest":"Glenroyal Gym","Fitness NearestID":"2","Supplies WalkTime":10.57,"Supplies Nearest":"SuperValu","Supplies NearestID":"node/335754695","Pharmacy WalkTime":10.62,"Pharmacy Nearest":"Callagy's","Pharmacy NearestID":"3","GP WalkTime":5.1,"GP Nearest":"Park Lodge Medical","GP NearestID":"4","Average WalkTime":9.68,"Snap distance m":34}},{"type":"Feature","geometry":{"type":"Polygon","coordinates":[[[-6.598072910395406,53.3797210594483],[-6.600217046399681,53.378634336301104],[-6.599539025582321,53.37690461620486],[-6.596717038692717,53.37626162507466],[-6.594572972032538,53.37734831774983],[-6.595250822915477,53.37907803202552],[-6.598072910395406,53.3797210594483]]]},"properties":{"hex_id":"89182c1a327ffff","Food&Drinks WalkTime":6.19,"Food&Drinks Nearest":"Starbucks","Food&Drinks NearestID":"41","Fitness WalkTime":13.2,"Fitness Nearest":"Maynooth University Gym","Fitness NearestID":"1","Supplies WalkTime":8.2,"Supplies Nearest":"ALDI","Supplies NearestID":"way/30633224","Pharmacy WalkTime":8.74,"Pharmacy Nearest":"Hickey's Pharmacy","Pharmacy NearestID":"4","GP WalkTime":8.02,"GP Nearest":"Manor Mills Medical","GP NearestID":"2","Average WalkTime":8.87,"Snap distance m":5}},{"type":"Feature","geometry":{"type":"Polygon","coordinates":[[[-6.610936892988582,53.373199734752916],[-6.61308069559295,53.37211261729082],[-6.612402300219546,53.37038279148646],[-6.609580272127244,53.369740088942116],[-6.607436538779571,53.37082717591918],[-6.608114764265111,53.37255699592392],[-6.610936892988582,53.373199734752916]]]},"properties":{"hex_id":"89182c1858fffff","Food&Drinks WalkTime":24.87,"Food&Drinks Nearest":"Golden Palace Chinese Restaurant","Food&Drinks NearestID":"42","Fitness WalkTime":35.81,"Fitness Nearest":"Glenroyal Gym","Fitness NearestID":"2","Supplies WalkTime":21.71,"Supplies Nearest":"Spar","Supplies NearestID":"node/352674189","Pharmacy WalkTime":31.77,"Pharmacy Nearest":"Hickey's Pharmacy","Pharmacy NearestID":"4","GP WalkTime":19.38,"GP Nearest":"Dr Denise Nolan","GP NearestID":"6","Average WalkTime":26.71,"Snap distance m":103}},{"type":"Feature","geometry":{"type":"Polygon","coordinates":[[[-6.584075403182437,53.37022941525911],[-6.586219261729702,53.36914281396792],[-6.585541850871944,53.36741292902722],[-6.582720751348127,53.36676965123406],[-6.580576962198645,53.36785622207465],[-6.58125420317281,53.36958610115731],[-6.584075403182437,53.37022941525911]]]},"properties":{"hex_id":"89182c1ae0fffff","Food&Drinks WalkTime":11.9,"Food&Drinks Nearest":"LANA","Food&Drinks NearestID":"27","Fitness WalkTime":23.58,"Fitness Nearest":"Glenroyal Gym","Fitness NearestID":"2","Supplies WalkTime":10.32,"Supplies Nearest":"Lidl","Supplies NearestID":"way/31574825","Pharmacy WalkTime":12.79,"Pharmacy Nearest":"St Patrick's Pharmacy","Pharmacy NearestID":"6","GP WalkTime":16.72,"GP Nearest":"Park Lodge Medical","GP NearestID":"4","Average WalkTime":15.06,"Snap distance m":13}},{"type":"Feature","geometry":{"type":"Polygon","coordinates":[[[-6.577643494586444,53.37348882483437],[-6.579787519606953,53.37240242069375],[-6.579110296092733,53.37067258865047],[-6.576289217462438,53.37002916661459],[-6.574145261883409,53.371115540311116],[-6.574822315490795,53.37284536648591],[-6.577643494586444,53.37348882483437]]]},"properties":{"hex_id":"89182c1ae17ffff","Food&Drinks WalkTime":10.92,"Food&Drinks Nearest":"LANA","Food&Drinks NearestID":"27","Fitness WalkTime":22.61,"Fitness Nearest":"Glenroyal Gym","Fitness NearestID":"2","Supplies WalkTime":11.45,"Supplies Nearest":"Centra","Supplies NearestID":"node/354880889","Pharmacy WalkTime":11.81,"Pharmacy Nearest":"St Patrick's Pharmacy","Pharmacy NearestID":"6","GP WalkTime":15.75,"GP Nearest":"Park Lodge Medical","GP NearestID":"4","Average WalkTime":14.51,"Snap distance m":239}},{"type":"Feature","geometry":{"type":"Polygon","coordinates":[[[-6.578208258379168,53.3814940562156],[-6.580352588768399,53.38040778834715],[-6.579675247720424,53.37867809159267],[-6.576853746236362,53.37803466856515],[-6.574709485305502,53.379120905985296],[-6.57538665639795,53.380850596879576],[-6.578208258379168,53.3814940562156]]]},"properties":{"hex_id":"89182c1ae9bffff","Food&Drinks WalkTime":12.48,"Food&Drinks Nearest":"Shoda Market Cafe","Food&Drinks NearestID":"22","Fitness WalkTime":16.43,"Fitness Nearest":"Glenroyal Gym","Fitness NearestID":"2","Supplies WalkTime":13.99,"Supplies Nearest":"SuperValu","Supplies NearestID":"node/335754695","Pharmacy WalkTime":14.03,"Pharmacy Nearest":"Callagy's","Pharmacy NearestID":"3","GP WalkTime":8.51,"GP Nearest":"Park Lodge Medical","GP NearestID":"4","Average WalkTime":13.09,"Snap distance m":23}},{"type":"Feature","geometry":{"type":"Polygon","coordinates":[[[-6.598640753008809,53.38772616189355],[-6.600785194396501,53.3866395749759],[-6.600107055811013,53.38490999025431],[-6.597284645818528,53.38426699826101],[-6.595140273791807,53.38535355470241],[-6.595818242394182,53.38708313361168],[-6.598640753008809,53.38772616189355]]]},"properties":{"hex_id":"89182c1a3abffff","Food&Drinks WalkTime":4.11,"Food&Drinks Nearest":"Subway","Food&Drinks NearestID":"28","Fitness WalkTime":5.78,"Fitness Nearest":"Maynooth University Gym","Fitness NearestID":"1","Supplies WalkTime":3.82,"Supplies Nearest":"Londis","Supplies NearestID":"node/405712189","Pharmacy WalkTime":8.75,"Pharmacy Nearest":"Hickey's Pharmacy","Pharmacy NearestID":"4","GP WalkTime":3.95,"GP Nearest":"Student Medical Center","GP NearestID":"7","Average WalkTime":5.28,"Snap distance m":14}},{"type":"Feature","geometry":{"type":"Polygon","coordinates":[[[-6.604176563369737,53.3952870568394],[-6.606321261510461,53.3942004923155],[-6.605642835090562,53.39247103722731],[-6.602819880554087,53.391828152455446],[-6.600675251762582,53.39291468649298],[-6.601353508155947,53.39464413578703],[-6.604176563369737,53.3952870568394]]]},"properties":{"hex_id":"89182c1a38bffff","Food&Drinks WalkTime":18.38,"Food&Drinks Nearest":"Coffee Mill","Food&Drinks NearestID":"29","Fitness WalkTime":26.08,"Fitness Nearest":"Maynooth University Gym","Fitness NearestID":"1","Supplies WalkTime":18.94,"Supplies Nearest":"ALDI","Supplies NearestID":"way/30633224","Pharmacy WalkTime":18.45,"Pharmacy Nearest":"Hickey's Pharmacy","Pharmacy NearestID":"4","GP WalkTime":17.45,"GP Nearest":"Manor Mills Medical","GP NearestID":"2","Average WalkTime":19.86,"Snap distance m":217}},{"type":"Feature","geometry":{"type":"Polygon","coordinates":[[[-6.585772937830507,53.39424430296222],[-6.58791771258527,53.393158110462295],[-6.587239948852257,53.39142863152668],[-6.584417580391751,53.39078535092254],[-6.582272875085415,53.39187151295926],[-6.58295046878876,53.39360098606162],[-6.585772937830507,53.39424430296222]]]},"properties":{"hex_id":"89182c1a143ffff","Food&Drinks WalkTime":11.55,"Food&Drinks Nearest":"Avenue","Food&Drinks NearestID":"9","Fitness WalkTime":17.4,"Fitness Nearest":"Anytime Fitness Gym","Fitness NearestID":"3","Supplies WalkTime":12.0,"Supplies Nearest":"Londis","Supplies NearestID":"node/359968059","Pharmacy WalkTime":12.26,"Pharmacy Nearest":"Mc Cormack's","Pharmacy NearestID":"1","GP WalkTime":12.29,"GP Nearest":"Maynooth Medical","GP NearestID":"1","Average WalkTime":13.1,"Snap distance m":305}},{"type":"Feature","geometry":{"type":"Polygon","coordinates":[[[-6.594005835711127,53.36934240323329],[-6.596149597091221,53.36825557434181],[-6.595471846482051,53.36652567771485],[-6.592650504363467,53.36588261581584],[-6.590506812324057,53.36696941424486],[-6.591184393060171,53.36869930503362],[-6.594005835711127,53.36934240323329]]]},"properties":{"hex_id":"89182c1ae7bffff","Food&Drinks WalkTime":15.8,"Food&Drinks Nearest":"Romayo's","Food&Drinks NearestID":"43","Fitness WalkTime":27.57,"Fitness Nearest":"Glenroyal Gym","Fitness NearestID":"2","Supplies WalkTime":10.07,"Supplies Nearest":"Lidl","Supplies NearestID":"way/31574825","Pharmacy WalkTime":15.84,"Pharmacy Nearest":"St Patrick's Pharmacy","Pharmacy NearestID":"6","GP WalkTime":20.7,"GP Nearest":"Park Lodge Medical","GP NearestID":"4","Average WalkTime":18.0,"Snap distance m":57}},{"type":"Feature","geometry":{"type":"Polygon","coordinates":[[[-6.615007837259649,53.383577965710366],[-6.6171520144018,53.38249095393156],[-6.616473348558765,53.380761304767304],[-6.613650675520379,53.38011867316219],[-6.611506567638275,53.38120565444637],[-6.612185063532125,53.3829352978286],[-6.615007837259649,53.383577965710366]]]},"properties":{"hex_id":"89182c1a363ffff","Food&Drinks WalkTime":14.2,"Food&Drinks Nearest":"Maynooth Students’ Union Bar","Food&Drinks NearestID":"39","Fitness WalkTime":16.82,"Fitness Nearest":"Maynooth University Gym","Fitness NearestID":"1","Supplies WalkTime":15.19,"Supplies Nearest":"ALDI","Supplies NearestID":"way/30633224","Pharmacy WalkTime":19.0,"Pharmacy Nearest":"Hickey's Pharmacy","Pharmacy NearestID":"4","GP WalkTime":8.99,"GP Nearest":"The Leinster Clinic","GP NearestID":"5","Average WalkTime":14.84,"Snap distance m":16}},{"type":"Feature","geometry":{"type":"Polygon","coordinates":[[[-6.602141606763739,53.390098656079616],[-6.604286117498959,53.389012038680356],[-6.603607826318622,53.38728249522789],[-6.600785194396501,53.3866395749759],[-6.598640753008809,53.38772616189355],[-6.599318874193316,53.389455699543085],[-6.602141606763739,53.390098656079616]]]},"properties":{"hex_id":"89182c1a317ffff","Food&Drinks WalkTime":6.99,"Food&Drinks Nearest":"Subway","Food&Drinks NearestID":"28","Fitness WalkTime":8.09,"Fitness Nearest":"Maynooth University Gym","Fitness NearestID":"1","Supplies WalkTime":6.65,"Supplies Nearest":"Londis","Supplies NearestID":"node/405712189","Pharmacy WalkTime":12.54,"Pharmacy Nearest":"Hickey's Pharmacy","Pharmacy NearestID":"4","GP WalkTime":7.67,"GP Nearest":"Student Medical Center","GP NearestID":"7","Average WalkTime":8.39,"Snap distance m":8}},{"type":"Feature","geometry":{"type":"Polygon","coordinates":[[[-6.608574972197843,53.38683860668286],[-6.610719316153827,53.385751792087426],[-6.610040837617988,53.38402219577101],[-6.607218185096295,53.38337941984076],[-6.605073910444085,53.3844662039481],[-6.605752219007403,53.38619579447206],[-6.608574972197843,53.38683860668286]]]},"properties":{"hex_id":"89182c1a30fffff","Food&Drinks WalkTime":4.79,"Food&Drinks Nearest":"Phoenix Restaurant","Food&Drinks NearestID":"36","Fitness WalkTime":3.33,"Fitness Nearest":"Maynooth University Gym","Fitness NearestID":"1","Supplies WalkTime":7.89,"Supplies Nearest":"Londis","Supplies NearestID":"node/405712189","Pharmacy WalkTime":15.17,"Pharmacy Nearest":"Hickey's Pharmacy","Pharmacy NearestID":"4","GP WalkTime":8.94,"GP Nearest":"Student Medical Center","GP NearestID":"7","Average WalkTime":8.03,"Snap distance m":58}},{"type":"Feature","geometry":{"type":"Polygon","coordinates":[[[-6.600675251762582,53.39291468649298],[-6.602819880554087,53.391828152455446],[-6.602141606763739,53.390098656079616],[-6.599318874193316,53.389455699543085],[-6.597174314764493,53.39054220309959],[-6.597852418541016,53.39227169367196],[-6.600675251762582,53.39291468649298]]]},"properties":{"hex_id":"89182c1a38fffff","Food&Drinks WalkTime":13.21,"Food&Drinks Nearest":"Coffee Mill","Food&Drinks NearestID":"29","Fitness WalkTime":20.91,"Fitness Nearest":"Maynooth University Gym","Fitness NearestID":"1","Supplies WalkTime":13.77,"Supplies Nearest":"ALDI","Supplies NearestID":"way/30633224","Pharmacy WalkTime":13.28,"Pharmacy Nearest":"Hickey's Pharmacy","Pharmacy NearestID":"4","GP WalkTime":12.29,"GP Nearest":"Manor Mills Medical","GP NearestID":"2","Average WalkTime":14.69,"Snap distance m":78}},{"type":"Feature","geometry":{"type":"Polygon","coordinates":[[[-6.59074030305949,53.393801319347695],[-6.592885029193719,53.39271501300331],[-6.592207095436305,53.39098552824437],[-6.58938460556665,53.39034235565147],[-6.587239948852257,53.39142863152668],[-6.58791771258527,53.393158110462295],[-6.59074030305949,53.393801319347695]]]},"properties":{"hex_id":"89182c1a14bffff","Food&Drinks WalkTime":18.2,"Food&Drinks Nearest":"Coffee Mill","Food&Drinks NearestID":"29","Fitness WalkTime":25.91,"Fitness Nearest":"Maynooth University Gym","Fitness NearestID":"1","Supplies WalkTime":18.77,"Supplies Nearest":"ALDI","Supplies NearestID":"way/30633224","Pharmacy WalkTime":18.28,"Pharmacy Nearest":"Hickey's Pharmacy","Pharmacy NearestID":"4","GP WalkTime":17.28,"GP Nearest":"Manor Mills Medical","GP NearestID":"2","Average WalkTime":19.69,"Snap distance m":86}},{"type":"Feature","geometry":{"type":"Polygon","coordinates":[[[-6.602470849810623,53.37127133853639],[-6.604614631855068,53.37018436536891],[-6.603936558885662,53.36845450413193],[-6.6011148737499,53.36781162187968],[-6.598971161004162,53.36889856457342],[-6.599649064093094,53.370628419991476],[-6.602470849810623,53.37127133853639]]]},"properties":{"hex_id":"89182c185b3ffff","Food&Drinks WalkTime":21.91,"Food&Drinks Nearest":"Romayo's","Food&Drinks NearestID":"43","Fitness WalkTime":33.67,"Fitness Nearest":"Glenroyal Gym","Fitness NearestID":"2","Supplies WalkTime":16.18,"Supplies Nearest":"Lidl","Supplies NearestID":"way/31574825","Pharmacy WalkTime":21.94,"Pharmacy Nearest":"St Patrick's Pharmacy","Pharmacy NearestID":"6","GP WalkTime":26.81,"GP Nearest":"Park Lodge Medical","GP NearestID":"4","Average WalkTime":24.1,"Snap distance m":112}},{"type":"Feature","geometry":{"type":"Polygon","coordinates":[[[-6.5811421016235,53.375861996552096],[-6.58328619607209,53.37477556196204],[-6.582608820105238,53.37304577110415],[-6.579787519606953,53.37240242069375],[-6.577643494586444,53.37348882483437],[-6.578320700633761,53.37521860983312],[-6.5811421016235,53.375861996552096]]]},"properties":{"hex_id":"89182c1ae13ffff","Food&Drinks WalkTime":9.73,"Food&Drinks Nearest":"LANA","Food&Drinks NearestID":"27","Fitness WalkTime":17.82,"Fitness Nearest":"Glenroyal Gym","Fitness NearestID":"2","Supplies WalkTime":10.25,"Supplies Nearest":"Centra","Supplies NearestID":"node/354880889","Pharmacy WalkTime":10.62,"Pharmacy Nearest":"St Patrick's Pharmacy","Pharmacy NearestID":"6","GP WalkTime":10.24,"GP Nearest":"Park Lodge Medical","GP NearestID":"4","Average WalkTime":11.73,"Snap distance m":23}},{"type":"Feature","geometry":{"type":"Polygon","coordinates":[[[-6.592539689577858,53.3721589983751],[-6.594683568914299,53.371072252822515],[-6.594005835711127,53.36934240323329],[-6.591184393060171,53.36869930503362],[-6.589040583079562,53.369786020124295],[-6.589718146391689,53.371515863874784],[-6.592539689577858,53.3721589983751]]]},"properties":{"hex_id":"89182c1ae47ffff","Food&Drinks WalkTime":7.12,"Food&Drinks Nearest":"Romayo's","Food&Drinks NearestID":"43","Fitness WalkTime":18.88,"Fitness Nearest":"Glenroyal Gym","Fitness NearestID":"2","Supplies WalkTime":4.29,"Supplies Nearest":"Lidl","Supplies NearestID":"way/31574825","Pharmacy WalkTime":7.16,"Pharmacy Nearest":"St Patrick's Pharmacy","Pharmacy NearestID":"6","GP WalkTime":11.75,"GP Nearest":"Dr Denise Nolan","GP NearestID":"6","Average WalkTime":9.84,"Snap distance m":15}},{"type":"Feature","geometry":{"type":"Polygon","coordinates":[[[-6.575612146377143,53.36829929339984],[-6.577755984030894,53.36721283635134],[-6.577078895474695,53.36548291610184],[-6.57425813913853,53.364839458776366],[-6.572114370924517,53.365925885385515],[-6.572791289604561,53.367655799757785],[-6.575612146377143,53.36829929339984]]]},"properties":{"hex_id":"89182c1ae33ffff","Food&Drinks WalkTime":14.56,"Food&Drinks Nearest":"LANA","Food&Drinks NearestID":"27","Fitness WalkTime":26.25,"Fitness Nearest":"Glenroyal Gym","Fitness NearestID":"2","Supplies WalkTime":15.09,"Supplies Nearest":"Centra","Supplies NearestID":"node/354880889","Pharmacy WalkTime":15.45,"Pharmacy Nearest":"St Patrick's Pharmacy","Pharmacy NearestID":"6","GP WalkTime":19.38,"GP Nearest":"Park Lodge Medical","GP NearestID":"4","Average WalkTime":18.15,"Snap distance m":167}},{"type":"Feature","geometry":{"type":"Polygon","coordinates":[[[-6.592774187210316,53.398989544016075],[-6.594919100821663,53.39790329057367],[-6.594241031882089,53.396173894171106],[-6.591418219383912,53.395530757023764],[-6.589273375194137,53.39661697999225],[-6.589951274078589,53.3983463705803],[-6.592774187210316,53.398989544016075]]]},"properties":{"hex_id":"89182c1a02fffff","Food&Drinks WalkTime":35.21,"Food&Drinks Nearest":"Coffee Mill","Food&Drinks NearestID":"29","Fitness WalkTime":40.6,"Fitness Nearest":"Anytime Fitness Gym","Fitness NearestID":"3","Supplies WalkTime":35.77,"Supplies Nearest":"ALDI","Supplies NearestID":"way/30633224","Pharmacy WalkTime":35.28,"Pharmacy Nearest":"Hickey's Pharmacy","Pharmacy NearestID":"4","GP WalkTime":34.29,"GP Nearest":"Manor Mills Medical","GP NearestID":"2","Average WalkTime":36.23,"Snap distance m":20}},{"type":"Feature","geometry":{"type":"Polygon","coordinates":[[[-6.572114370924517,53.365925885385515],[-6.57425813913853,53.364839458776366],[-6.573581202976614,53.36310949737391],[-6.570760668461711,53.362465968465564],[-6.568616969700818,53.36355236464077],[-6.569293735999311,53.365282320156574],[-6.572114370924517,53.365925885385515]]]},"properties":{"hex_id":"89182c1ae37ffff","Food&Drinks WalkTime":30.63,"Food&Drinks Nearest":"Romayo's","Food&Drinks NearestID":"43","Fitness WalkTime":42.39,"Fitness Nearest":"Glenroyal Gym","Fitness NearestID":"2","Supplies WalkTime":24.9,"Supplies Nearest":"Lidl","Supplies NearestID":"way/31574825","Pharmacy WalkTime":30.66,"Pharmacy Nearest":"St Patrick's Pharmacy","Pharmacy NearestID":"6","GP WalkTime":35.53,"GP Nearest":"Park Lodge Medical","GP NearestID":"4","Average WalkTime":32.82,"Snap distance m":30}},{"type":"Feature","geometry":{"type":"Polygon","coordinates":[[[-6.577078895474695,53.36548291610184],[-6.579222615212982,53.36439637570649],[-6.578545509192885,53.36266640842731],[-6.575724853290294,53.36202298741848],[-6.573581202976614,53.36310949737391],[-6.57425813913853,53.364839458776366],[-6.577078895474695,53.36548291610184]]]},"properties":{"hex_id":"89182c1ae23ffff","Food&Drinks WalkTime":25.84,"Food&Drinks Nearest":"Romayo's","Food&Drinks NearestID":"43","Fitness WalkTime":37.6,"Fitness Nearest":"Glenroyal Gym","Fitness NearestID":"2","Supplies WalkTime":20.11,"Supplies Nearest":"Lidl","Supplies NearestID":"way/31574825","Pharmacy WalkTime":25.87,"Pharmacy Nearest":"St Patrick's Pharmacy","Pharmacy NearestID":"6","GP WalkTime":30.74,"GP Nearest":"Park Lodge Medical","GP NearestID":"4","Average WalkTime":28.03,"Snap distance m":50}},{"type":"Feature","geometry":{"type":"Polygon","coordinates":[[[-6.590173564459534,53.38579689730506],[-6.592317985122721,53.384710454694485],[-6.591640169078753,53.382980834539424],[-6.588818102344918,53.38233766282479],[-6.586673751084706,53.383424074970414],[-6.587351397152983,53.385153689293894],[-6.590173564459534,53.38579689730506]]]},"properties":{"hex_id":"89182c1a3a7ffff","Food&Drinks WalkTime":2.95,"Food&Drinks Nearest":"Avenue","Food&Drinks NearestID":"9","Fitness WalkTime":8.84,"Fitness Nearest":"Anytime Fitness Gym","Fitness NearestID":"3","Supplies WalkTime":3.4,"Supplies Nearest":"Londis","Supplies NearestID":"node/359968059","Pharmacy WalkTime":3.66,"Pharmacy Nearest":"Mc Cormack's","Pharmacy NearestID":"1","GP WalkTime":3.68,"GP Nearest":"Maynooth Medical","GP NearestID":"1","Average WalkTime":4.5,"Snap distance m":18}},{"type":"Feature","geometry":{"type":"Polygon","coordinates":[[[-6.587239948852257,53.39142863152668],[-6.58938460556665,53.39034235565147],[-6.588706824389653,53.388612829637545],[-6.585884556507543,53.38796958532988],[-6.583739969226428,53.389055830741356],[-6.584417580391751,53.39078535092254],[-6.587239948852257,53.39142863152668]]]},"properties":{"hex_id":"89182c1a14fffff","Food&Drinks WalkTime":12.34,"Food&Drinks Nearest":"Avenue","Food&Drinks NearestID":"9","Fitness WalkTime":18.2,"Fitness Nearest":"Anytime Fitness Gym","Fitness NearestID":"3","Supplies WalkTime":12.79,"Supplies Nearest":"Londis","Supplies NearestID":"node/359968059","Pharmacy WalkTime":13.05,"Pharmacy Nearest":"Mc Cormack's","Pharmacy NearestID":"1","GP WalkTime":13.08,"GP Nearest":"Maynooth Medical","GP NearestID":"1","Average WalkTime":13.89,"Snap distance m":58}},{"type":"Feature","geometry":{"type":"Polygon","coordinates":[[[-6.591640169078753,53.382980834539424],[-6.593784471731084,53.38189430856888],[-6.593106638264142,53.38016464135092],[-6.590284672100172,53.37952150593284],[-6.58814043883567,53.38060800143788],[-6.588818102344918,53.38233766282479],[-6.591640169078753,53.382980834539424]]]},"properties":{"hex_id":"89182c1aedbffff","Food&Drinks WalkTime":1.15,"Food&Drinks Nearest":"Willow and Wild","Food&Drinks NearestID":"8","Fitness WalkTime":6.85,"Fitness Nearest":"Glenroyal Gym","Fitness NearestID":"2","Supplies WalkTime":1.84,"Supplies Nearest":"Mróz Maynooth","Supplies NearestID":"way/579222479","Pharmacy WalkTime":2.34,"Pharmacy Nearest":"Mc Cormack's","Pharmacy NearestID":"1","GP WalkTime":2.32,"GP Nearest":"Maynooth Medical","GP NearestID":"1","Average WalkTime":2.9,"Snap distance m":0}},{"type":"Feature","geometry":{"type":"Polygon","coordinates":[[[-6.601573223187926,53.38209368819214],[-6.603717428522881,53.38100693456756],[-6.603039255156408,53.379277255717284],[-6.600217046399681,53.378634336301104],[-6.598072910395406,53.3797210594483],[-6.598750913814762,53.38145073248737],[-6.601573223187926,53.38209368819214]]]},"properties":{"hex_id":"89182c1a323ffff","Food&Drinks WalkTime":3.85,"Food&Drinks Nearest":"Starbucks","Food&Drinks NearestID":"41","Fitness WalkTime":10.86,"Fitness Nearest":"Maynooth University Gym","Fitness NearestID":"1","Supplies WalkTime":5.86,"Supplies Nearest":"ALDI","Supplies NearestID":"way/30633224","Pharmacy WalkTime":9.7,"Pharmacy Nearest":"Hickey's Pharmacy","Pharmacy NearestID":"4","GP WalkTime":8.12,"GP Nearest":"Student Medical Center","GP NearestID":"7","Average WalkTime":7.68,"Snap distance m":5}},{"type":"Feature","geometry":{"type":"Polygon","coordinates":[[[-6.597505233385722,53.3717152793508],[-6.599649064093094,53.370628419991476],[-6.598971161004162,53.36889856457342],[-6.596149597091221,53.36825557434181],[-6.594005835711127,53.36934240323329],[-6.594683568914299,53.371072252822515],[-6.597505233385722,53.3717152793508]]]},"properties":{"hex_id":"89182c1ae4fffff","Food&Drinks WalkTime":7.34,"Food&Drinks Nearest":"Golden Palace Chinese Restaurant","Food&Drinks NearestID":"42","Fitness WalkTime":24.29,"Fitness Nearest":"Glenroyal Gym","Fitness NearestID":"2","Supplies WalkTime":6.21,"Supplies Nearest":"Spar","Supplies NearestID":"node/352674189","Pharmacy WalkTime":15.18,"Pharmacy Nearest":"St Patrick's Pharmacy","Pharmacy NearestID":"6","GP WalkTime":9.18,"GP Nearest":"Dr Denise Nolan","GP NearestID":"6","Average WalkTime":12.44,"Snap distance m":35}},{"type":"Feature","geometry":{"type":"Polygon","coordinates":[[[-6.605970912935391,53.37364399957055],[-6.608114764265111,53.37255699592392],[-6.607436538779571,53.37082717591918],[-6.604614631855068,53.37018436536891],[-6.602470849810623,53.37127133853639],[-6.603148905403007,53.37300115273161],[-6.605970912935391,53.37364399957055]]]},"properties":{"hex_id":"89182c18587ffff","Food&Drinks WalkTime":13.5,"Food&Drinks Nearest":"Golden Palace Chinese Restaurant","Food&Drinks NearestID":"42","Fitness WalkTime":24.44,"Fitness Nearest":"Glenroyal Gym","Fitness NearestID":"2","Supplies WalkTime":10.34,"Supplies Nearest":"Spar","Supplies NearestID":"node/352674189","Pharmacy WalkTime":20.4,"Pharmacy Nearest":"Hickey's Pharmacy","Pharmacy NearestID":"4","GP WalkTime":8.01,"GP Nearest":"Dr Denise Nolan","GP NearestID":"6","Average WalkTime":15.34,"Snap distance m":142}},{"type":"Feature","geometry":{"type":"Polygon","coordinates":[[[-6.574709485305502,53.379120905985296],[-6.576853746236362,53.37803466856515],[-6.576176557662974,53.37630493061608],[-6.573355278099145,53.37566143595505],[-6.571211086640045,53.37674764293231],[-6.571888105270643,53.37847737501179],[-6.574709485305502,53.379120905985296]]]},"properties":{"hex_id":"89182c1ae83ffff","Food&Drinks WalkTime":14.88,"Food&Drinks Nearest":"Shoda Market Cafe","Food&Drinks NearestID":"22","Fitness WalkTime":18.82,"Fitness Nearest":"Glenroyal Gym","Fitness NearestID":"2","Supplies WalkTime":16.38,"Supplies Nearest":"SuperValu","Supplies NearestID":"node/335754695","Pharmacy WalkTime":16.42,"Pharmacy Nearest":"Callagy's","Pharmacy NearestID":"3","GP WalkTime":10.9,"GP Nearest":"Park Lodge Medical","GP NearestID":"4","Average WalkTime":15.48,"Snap distance m":34}},{"type":"Feature","geometry":{"type":"Polygon","coordinates":[[[-6.612972162275538,53.37838898271926],[-6.615116152135475,53.377301918098354],[-6.614437621546617,53.375572180599896],[-6.611615271013951,53.374929513511475],[-6.60947135041239,53.376016547642585],[-6.610149711082726,53.3777462793502],[-6.612972162275538,53.37838898271926]]]},"properties":{"hex_id":"89182c1859bffff","Food&Drinks WalkTime":19.56,"Food&Drinks Nearest":"Golden Palace Chinese Restaurant","Food&Drinks NearestID":"42","Fitness WalkTime":30.5,"Fitness Nearest":"Glenroyal Gym","Fitness NearestID":"2","Supplies WalkTime":16.39,"Supplies Nearest":"Spar","Supplies NearestID":"node/352674189","Pharmacy WalkTime":26.46,"Pharmacy Nearest":"Hickey's Pharmacy","Pharmacy NearestID":"4","GP WalkTime":14.06,"GP Nearest":"Dr Denise Nolan","GP NearestID":"6","Average WalkTime":21.4,"Snap distance m":5}},{"type":"Feature","geometry":{"type":"Polygon","coordinates":[[[-6.605073910444085,53.3844662039481],[-6.607218185096295,53.38337941984076],[-6.606539859156983,53.381649782250435],[-6.603717428522881,53.38100693456756],[-6.601573223187926,53.38209368819214],[-6.602251379167414,53.383823319980664],[-6.605073910444085,53.3844662039481]]]},"properties":{"hex_id":"89182c1a33bffff","Food&Drinks WalkTime":1.09,"Food&Drinks Nearest":"Maynooth Students’ Union Bar","Food&Drinks NearestID":"39","Fitness WalkTime":4.31,"Fitness Nearest":"Maynooth University Gym","Fitness NearestID":"1","Supplies WalkTime":6.57,"Supplies Nearest":"Londis","Supplies NearestID":"node/405712189","Pharmacy WalkTime":10.88,"Pharmacy Nearest":"Hickey's Pharmacy","Pharmacy NearestID":"4","GP WalkTime":6.95,"GP Nearest":"Student Medical Center","GP NearestID":"7","Average WalkTime":5.96,"Snap distance m":18}},{"type":"Feature","geometry":{"type":"Polygon","coordinates":[[[-6.597174314764493,53.39054220309959],[-6.599318874193316,53.389455699543085],[-6.598640753008809,53.38772616189355],[-6.595818242394182,53.38708313361168],[-6.593673752341462,53.38816960669253],[-6.594351703524862,53.389899138529195],[-6.597174314764493,53.39054220309959]]]},"properties":{"hex_id":"89182c1a3bbffff","Food&Drinks WalkTime":10.39,"Food&Drinks Nearest":"Coffee Mill","Food&Drinks NearestID":"29","Fitness WalkTime":18.09,"Fitness Nearest":"Maynooth University Gym","Fitness NearestID":"1","Supplies WalkTime":10.95,"Supplies Nearest":"ALDI","Supplies NearestID":"way/30633224","Pharmacy WalkTime":10.46,"Pharmacy Nearest":"Hickey's Pharmacy","Pharmacy NearestID":"4","GP WalkTime":9.46,"GP Nearest":"Manor Mills Medical","GP NearestID":"2","Average WalkTime":11.87,"Snap distance m":47}},{"type":"Feature","geometry":{"type":"Polygon","coordinates":[[[-6.59920876129832,53.39573058645773],[-6.601353508155947,53.39464413578703],[-6.600675251762582,53.39291468649298],[-6.597852418541016,53.39227169367196],[-6.595707741061195,53.39335811386219],[-6.596385827422743,53.39508755735221],[-6.59920876129832,53.39573058645773]]]},"properties":{"hex_id":"89182c1a383ffff","Food&Drinks WalkTime":24.42,"Food&Drinks Nearest":"Coffee Mill","Food&Drinks NearestID":"29","Fitness WalkTime":32.12,"Fitness Nearest":"Maynooth University Gym","Fitness NearestID":"1","Supplies WalkTime":24.98,"Supplies Nearest":"ALDI","Supplies NearestID":"way/30633224","Pharmacy WalkTime":24.49,"Pharmacy Nearest":"Hickey's Pharmacy","Pharmacy NearestID":"4","GP WalkTime":23.5,"GP Nearest":"Manor Mills Medical","GP NearestID":"2","Average WalkTime":25.9,"Snap distance m":8}},{"type":"Feature","geometry":{"type":"Polygon","coordinates":[[[-6.594241031882089,53.396173894171106],[-6.596385827422743,53.39508755735221],[-6.595707741061195,53.39335811386219],[-6.592885029193719,53.39271501300331],[-6.59074030305949,53.393801319347695],[-6.591418219383912,53.395530757023764],[-6.594241031882089,53.396173894171106]]]},"properties":{"hex_id":"89182c1a397ffff","Food&Drinks WalkTime":20.73,"Food&Drinks Nearest":"Coffee Mill","Food&Drinks NearestID":"29","Fitness WalkTime":28.43,"Fitness Nearest":"Maynooth University Gym","Fitness NearestID":"1","Supplies WalkTime":21.29,"Supplies Nearest":"ALDI","Supplies NearestID":"way/30633224","Pharmacy WalkTime":20.8,"Pharmacy Nearest":"Hickey's Pharmacy","Pharmacy NearestID":"4","GP WalkTime":19.8,"GP Nearest":"Manor Mills Medical","GP NearestID":"2","Average WalkTime":22.21,"Snap distance m":17}},{"type":"Feature","geometry":{"type":"Polygon","coordinates":[[[-6.574145261883409,53.371115540311116],[-6.576289217462438,53.37002916661459],[-6.575612146377143,53.36829929339984],[-6.572791289604561,53.367655799757785],[-6.570647403480392,53.36874214301557],[-6.571324304671573,53.37047201035246],[-6.574145261883409,53.371115540311116]]]},"properties":{"hex_id":"89182c1aeabffff","Food&Drinks WalkTime":14.02,"Food&Drinks Nearest":"LANA","Food&Drinks NearestID":"27","Fitness WalkTime":25.7,"Fitness Nearest":"Glenroyal Gym","Fitness NearestID":"2","Supplies WalkTime":14.54,"Supplies Nearest":"Centra","Supplies NearestID":"node/354880889","Pharmacy WalkTime":14.91,"Pharmacy Nearest":"St Patrick's Pharmacy","Pharmacy NearestID":"6","GP WalkTime":18.84,"GP Nearest":"Park Lodge Medical","GP NearestID":"4","Average WalkTime":17.6,"Snap distance m":158}},{"type":"Feature","geometry":{"type":"Polygon","coordinates":[[[-6.612076408483124,53.389210896363224],[-6.614220821729453,53.388124051274325],[-6.613542190573385,53.38639449624574],[-6.610719316153827,53.385751792087426],[-6.608574972197843,53.38683860668286],[-6.609253433368689,53.38856815592836],[-6.612076408483124,53.389210896363224]]]},"properties":{"hex_id":"89182c1a30bffff","Food&Drinks WalkTime":14.63,"Food&Drinks Nearest":"Maynooth Students’ Union Bar","Food&Drinks NearestID":"39","Fitness WalkTime":17.25,"Fitness Nearest":"Maynooth University Gym","Fitness NearestID":"1","Supplies WalkTime":15.62,"Supplies Nearest":"ALDI","Supplies NearestID":"way/30633224","Pharmacy WalkTime":19.43,"Pharmacy Nearest":"Hickey's Pharmacy","Pharmacy NearestID":"4","GP WalkTime":9.42,"GP Nearest":"The Leinster Clinic","GP NearestID":"5","Average WalkTime":15.27,"Snap distance m":243}},{"type":"Feature","geometry":{"type":"Polygon","coordinates":[[[-6.605642835090562,53.39247103722731],[-6.607787415159848,53.391384389341134],[-6.607108971360978,53.38965488717174],[-6.604286117498959,53.389012038680356],[-6.602141606763739,53.390098656079616],[-6.602819880554087,53.391828152455446],[-6.605642835090562,53.39247103722731]]]},"properties":{"hex_id":"89182c1a313ffff","Food&Drinks WalkTime":6.99,"Food&Drinks Nearest":"Subway","Food&Drinks NearestID":"28","Fitness WalkTime":8.09,"Fitness Nearest":"Maynooth University Gym","Fitness NearestID":"1","Supplies WalkTime":6.65,"Supplies Nearest":"Londis","Supplies NearestID":"node/405712189","Pharmacy WalkTime":12.54,"Pharmacy Nearest":"Hickey's Pharmacy","Pharmacy NearestID":"4","GP WalkTime":7.67,"GP Nearest":"Student Medical Center","GP NearestID":"7","Average WalkTime":8.39,"Snap distance m":123}},{"type":"Feature","geometry":{"type":"Polygon","coordinates":[[[-6.579110296092733,53.37067258865047],[-6.58125420317281,53.36958610115731],[-6.580576962198645,53.36785622207465],[-6.577755984030894,53.36721283635134],[-6.575612146377143,53.36829929339984],[-6.576289217462438,53.37002916661459],[-6.579110296092733,53.37067258865047]]]},"properties":{"hex_id":"89182c1ae07ffff","Food&Drinks WalkTime":10.68,"Food&Drinks Nearest":"LANA","Food&Drinks NearestID":"27","Fitness WalkTime":22.37,"Fitness Nearest":"Glenroyal Gym","Fitness NearestID":"2","Supplies WalkTime":11.21,"Supplies Nearest":"Centra","Supplies NearestID":"node/354880889","Pharmacy WalkTime":11.57,"Pharmacy Nearest":"St Patrick's Pharmacy","Pharmacy NearestID":"6","GP WalkTime":15.5,"GP Nearest":"Park Lodge Medical","GP NearestID":"4","Average WalkTime":14.27,"Snap distance m":26}},{"type":"Feature","geometry":{"type":"Polygon","coordinates":[[[-6.590506812324057,53.36696941424486],[-6.592650504363467,53.36588261581584],[-6.591972906210371,53.36415267799393],[-6.589151785875867,53.36350954444687],[-6.587008163190584,53.36459631241875],[-6.587685591483298,53.36632624439312],[-6.590506812324057,53.36696941424486]]]},"properties":{"hex_id":"89182c1ae63ffff","Food&Drinks WalkTime":16.71,"Food&Drinks Nearest":"Romayo's","Food&Drinks NearestID":"43","Fitness WalkTime":28.47,"Fitness Nearest":"Glenroyal Gym","Fitness NearestID":"2","Supplies WalkTime":10.98,"Supplies Nearest":"Lidl","Supplies NearestID":"way/31574825","Pharmacy WalkTime":16.74,"Pharmacy Nearest":"St Patrick's Pharmacy","Pharmacy NearestID":"6","GP WalkTime":21.61,"GP Nearest":"Park Lodge Medical","GP NearestID":"4","Average WalkTime":18.9,"Snap distance m":21}},{"type":"Feature","geometry":{"type":"Polygon","coordinates":[[[-6.597742135354095,53.398546355963646],[-6.59988700028772,53.39745998866489],[-6.59920876129832,53.39573058645773],[-6.596385827422743,53.39508755735221],[-6.594241031882089,53.396173894171106],[-6.594919100821663,53.39790329057367],[-6.597742135354095,53.398546355963646]]]},"properties":{"hex_id":"89182c1a393ffff","Food&Drinks WalkTime":23.32,"Food&Drinks Nearest":"Coffee Mill","Food&Drinks NearestID":"29","Fitness WalkTime":31.02,"Fitness Nearest":"Maynooth University Gym","Fitness NearestID":"1","Supplies WalkTime":23.88,"Supplies Nearest":"ALDI","Supplies NearestID":"way/30633224","Pharmacy WalkTime":23.39,"Pharmacy Nearest":"Hickey's Pharmacy","Pharmacy NearestID":"4","GP WalkTime":22.4,"GP Nearest":"Manor Mills Medical","GP NearestID":"2","Average WalkTime":24.8,"Snap distance m":76}},{"type":"Feature","geometry":{"type":"Polygon","coordinates":[[[-6.600107055811013,53.38490999025431],[-6.602251379167414,53.383823319980664],[-6.601573223187926,53.38209368819214],[-6.598750913814762,53.38145073248737],[-6.596606659804162,53.38253737228425],[-6.597284645818528,53.38426699826101],[-6.600107055811013,53.38490999025431]]]},"properties":{"hex_id":"89182c1a333ffff","Food&Drinks WalkTime":1.45,"Food&Drinks Nearest":"Subway","Food&Drinks NearestID":"28","Fitness WalkTime":5.15,"Fitness Nearest":"Maynooth University Gym","Fitness NearestID":"1","Supplies WalkTime":2.02,"Supplies Nearest":"Londis","Supplies NearestID":"node/405712189","Pharmacy WalkTime":6.68,"Pharmacy Nearest":"Hickey's Pharmacy","Pharmacy NearestID":"4","GP WalkTime":2.34,"GP Nearest":"Student Medical Center","GP NearestID":"7","Average WalkTime":3.53,"Snap distance m":6}},{"type":"Feature","geometry":{"type":"Polygon","coordinates":[[[-6.582043492921045,53.36503972511714],[-6.584187164149733,53.363953070934244],[-6.583509888276716,53.36222309778823],[-6.580689111025521,53.361579784690264],[-6.578545509192885,53.36266640842731],[-6.579222615212982,53.36439637570649],[-6.582043492921045,53.36503972511714]]]},"properties":{"hex_id":"89182c1ae2bffff","Food&Drinks WalkTime":22.68,"Food&Drinks Nearest":"Romayo's","Food&Drinks NearestID":"43","Fitness WalkTime":34.45,"Fitness Nearest":"Glenroyal Gym","Fitness NearestID":"2","Supplies WalkTime":16.95,"Supplies Nearest":"Lidl","Supplies NearestID":"way/31574825","Pharmacy WalkTime":22.72,"Pharmacy Nearest":"St Patrick's Pharmacy","Pharmacy NearestID":"6","GP WalkTime":27.58,"GP Nearest":"Park Lodge Medical","GP NearestID":"4","Average WalkTime":24.88,"Snap distance m":33}},{"type":"Feature","geometry":{"type":"Polygon","coordinates":[[[-6.61061049097203,53.392027166052515],[-6.612755022285211,53.39094040431627],[-6.612076408483124,53.389210896363224],[-6.609253433368689,53.38856815592836],[-6.607108971360978,53.38965488717174],[-6.607787415159848,53.391384389341134],[-6.61061049097203,53.392027166052515]]]},"properties":{"hex_id":"89182c1a31bffff","Food&Drinks WalkTime":3.23,"Food&Drinks Nearest":"Phoenix Restaurant","Food&Drinks NearestID":"36","Fitness WalkTime":2.09,"Fitness Nearest":"Maynooth University Gym","Fitness NearestID":"1","Supplies WalkTime":5.93,"Supplies Nearest":"Londis","Supplies NearestID":"node/405712189","Pharmacy WalkTime":13.15,"Pharmacy Nearest":"Hickey's Pharmacy","Pharmacy NearestID":"4","GP WalkTime":6.99,"GP Nearest":"Student Medical Center","GP NearestID":"7","Average WalkTime":6.28,"Snap distance m":190}},{"type":"Feature","geometry":{"type":"Polygon","coordinates":[[[-6.575273873314764,53.38712559416761],[-6.577418439683974,53.386039493041224],[-6.576741133582894,53.38430989041068],[-6.573919431101699,53.38366639476615],[-6.571774934221153,53.38475246544543],[-6.572452070330744,53.38648206221464],[-6.575273873314764,53.38712559416761]]]},"properties":{"hex_id":"89182c1a177ffff","Food&Drinks WalkTime":10.33,"Food&Drinks Nearest":"McDonald's","Food&Drinks NearestID":"1","Fitness WalkTime":12.66,"Fitness Nearest":"Anytime Fitness Gym","Fitness NearestID":"3","Supplies WalkTime":10.97,"Supplies Nearest":"Tesco Extra","Supplies NearestID":"way/30420550","Pharmacy WalkTime":10.84,"Pharmacy Nearest":"McCartan's","Pharmacy NearestID":"2","GP WalkTime":14.68,"GP Nearest":"Maynooth Medical","GP NearestID":"1","Average WalkTime":11.9,"Snap distance m":5}},{"type":"Feature","geometry":{"type":"Polygon","coordinates":[[[-6.578773186924831,53.38949861001664],[-6.580917822769318,53.38841247843778],[-6.580240364147973,53.38668291702492],[-6.577418439683974,53.386039493041224],[-6.575273873314764,53.38712559416761],[-6.575951161931878,53.38885514972848],[-6.578773186924831,53.38949861001664]]]},"properties":{"hex_id":"89182c1a173ffff","Food&Drinks WalkTime":15.53,"Food&Drinks Nearest":"Avenue","Food&Drinks NearestID":"9","Fitness WalkTime":18.04,"Fitness Nearest":"Anytime Fitness Gym","Fitness NearestID":"3","Supplies WalkTime":15.98,"Supplies Nearest":"Londis","Supplies NearestID":"node/359968059","Pharmacy WalkTime":16.21,"Pharmacy Nearest":"McCartan's","Pharmacy NearestID":"2","GP WalkTime":16.26,"GP Nearest":"Maynooth Medical","GP NearestID":"1","Average WalkTime":16.4,"Snap distance m":8}},{"type":"Feature","geometry":{"type":"Polygon","coordinates":[[[-6.616473348558765,53.380761304767304],[-6.618617407663628,53.3796742096512],[-6.617938724487575,53.37794451342685],[-6.615116152135475,53.377301918098354],[-6.612972162275538,53.37838898271926],[-6.613650675520379,53.38011867316219],[-6.616473348558765,53.380761304767304]]]},"properties":{"hex_id":"89182c1a36fffff","Food&Drinks WalkTime":22.29,"Food&Drinks Nearest":"Golden Palace Chinese Restaurant","Food&Drinks NearestID":"42","Fitness WalkTime":28.82,"Fitness Nearest":"Maynooth University Gym","Fitness NearestID":"1","Supplies WalkTime":22.82,"Supplies Nearest":"Spar","Supplies NearestID":"node/352674189","Pharmacy WalkTime":25.19,"Pharmacy Nearest":"Hickey's Pharmacy","Pharmacy NearestID":"4","GP WalkTime":20.99,"GP Nearest":"The Leinster Clinic","GP NearestID":"5","Average WalkTime":24.02,"Snap distance m":93}},{"type":"Feature","geometry":{"type":"Polygon","coordinates":[[[-6.607678249619932,53.39765931410562],[-6.609823017096392,53.396572719089995],[-6.609144438023254,53.394843305303404],[-6.606321261510461,53.3942004923155],[-6.604176563369737,53.3952870568394],[-6.604854972403665,53.39701646484125],[-6.607678249619932,53.39765931410562]]]},"properties":{"hex_id":"89182c1a3d7ffff","Food&Drinks WalkTime":22.34,"Food&Drinks Nearest":"Coffee Mill","Food&Drinks NearestID":"29","Fitness WalkTime":30.05,"Fitness Nearest":"Maynooth University Gym","Fitness NearestID":"1","Supplies WalkTime":22.9,"Supplies Nearest":"ALDI","Supplies NearestID":"way/30633224","Pharmacy WalkTime":22.41,"Pharmacy Nearest":"Hickey's Pharmacy","Pharmacy NearestID":"4","GP WalkTime":21.42,"GP Nearest":"Manor Mills Medical","GP NearestID":"2","Average WalkTime":23.82,"Snap distance m":354}},{"type":"Feature","geometry":{"type":"Polygon","coordinates":[[[-6.607108971360978,53.38965488717174],[-6.609253433368689,53.38856815592836],[-6.608574972197843,53.38683860668286],[-6.605752219007403,53.38619579447206],[-6.603607826318622,53.38728249522789],[-6.604286117498959,53.389012038680356],[-6.607108971360978,53.38965488717174]]]},"properties":{"hex_id":"89182c1a303ffff","Food&Drinks WalkTime":3.23,"Food&Drinks Nearest":"Phoenix Restaurant","Food&Drinks NearestID":"36","Fitness WalkTime":2.09,"Fitness Nearest":"Maynooth University Gym","Fitness NearestID":"1","Supplies WalkTime":5.93,"Supplies Nearest":"Londis","Supplies NearestID":"node/405712189","Pharmacy WalkTime":13.15,"Pharmacy Nearest":"Hickey's Pharmacy","Pharmacy NearestID":"4","GP WalkTime":6.99,"GP Nearest":"Student Medical Center","GP NearestID":"7","Average WalkTime":6.28,"Snap distance m":48}},{"type":"Feature","geometry":{"type":"Polygon","coordinates":[[[-6.589040583079562,53.369786020124295],[-6.591184393060171,53.36869930503362],[-6.590506812324057,53.36696941424486],[-6.587685591483298,53.36632624439312],[-6.585541850871944,53.36741292902722],[-6.586219261729702,53.36914281396792],[-6.589040583079562,53.369786020124295]]]},"properties":{"hex_id":"89182c1ae73ffff","Food&Drinks WalkTime":13.4,"Food&Drinks Nearest":"Romayo's","Food&Drinks NearestID":"43","Fitness WalkTime":25.17,"Fitness Nearest":"Glenroyal Gym","Fitness NearestID":"2","Supplies WalkTime":5.88,"Supplies Nearest":"Lidl","Supplies NearestID":"way/31574825","Pharmacy WalkTime":13.44,"Pharmacy Nearest":"St Patrick's Pharmacy","Pharmacy NearestID":"6","GP WalkTime":18.3,"GP Nearest":"Park Lodge Medical","GP NearestID":"4","Average WalkTime":15.24,"Snap distance m":13}},{"type":"Feature","geometry":{"type":"Polygon","coordinates":[[[-6.568616969700818,53.36355236464077],[-6.570760668461711,53.362465968465564],[-6.570083884670385,53.36073596592415],[-6.56726357196648,53.36009236545222],[-6.565119942672072,53.36117873119883],[-6.565796556612703,53.362908727844236],[-6.568616969700818,53.36355236464077]]]},"properties":{"hex_id":"89182c1a8cbffff","Food&Drinks WalkTime":28.85,"Food&Drinks Nearest":"LANA","Food&Drinks NearestID":"27","Fitness WalkTime":40.53,"Fitness Nearest":"Glenroyal Gym","Fitness NearestID":"2","Supplies WalkTime":29.33,"Supplies Nearest":"Lidl","Supplies NearestID":"way/31574825","Pharmacy WalkTime":29.73,"Pharmacy Nearest":"St Patrick's Pharmacy","Pharmacy NearestID":"6","GP WalkTime":33.67,"GP Nearest":"Park Lodge Medical","GP NearestID":"4","Average WalkTime":32.42,"Snap distance m":26}},{"type":"Feature","geometry":{"type":"Polygon","coordinates":[[[-6.570307455460608,53.3875680495158],[-6.572452070330744,53.38648206221464],[-6.571774934221153,53.38475246544543],[-6.568953353235771,53.384108861846954],[-6.566808807882865,53.38519481870695],[-6.567485773995733,53.38692440960489],[-6.570307455460608,53.3875680495158]]]},"properties":{"hex_id":"89182c1a13bffff","Food&Drinks WalkTime":18.93,"Food&Drinks Nearest":"McDonald's","Food&Drinks NearestID":"1","Fitness WalkTime":21.26,"Fitness Nearest":"Anytime Fitness Gym","Fitness NearestID":"3","Supplies WalkTime":19.57,"Supplies Nearest":"Tesco Extra","Supplies NearestID":"way/30420550","Pharmacy WalkTime":19.43,"Pharmacy Nearest":"McCartan's","Pharmacy NearestID":"2","GP WalkTime":20.96,"GP Nearest":"Maynooth Medical","GP NearestID":"1","Average WalkTime":20.03,"Snap distance m":136}},{"type":"Feature","geometry":{"type":"Polygon","coordinates":[[[-6.580240364147973,53.38668291702492],[-6.582384881982394,53.385596702071894],[-6.581707405895097,53.383867093589885],[-6.578885581957197,53.383223705910694],[-6.576741133582894,53.38430989041068],[-6.577418439683974,53.386039493041224],[-6.580240364147973,53.38668291702492]]]},"properties":{"hex_id":"89182c1a163ffff","Food&Drinks WalkTime":7.66,"Food&Drinks Nearest":"McDonald's","Food&Drinks NearestID":"1","Fitness WalkTime":9.99,"Fitness Nearest":"Anytime Fitness Gym","Fitness NearestID":"3","Supplies WalkTime":8.3,"Supplies Nearest":"Tesco Extra","Supplies NearestID":"way/30420550","Pharmacy WalkTime":8.17,"Pharmacy Nearest":"McCartan's","Pharmacy NearestID":"2","GP WalkTime":9.7,"GP Nearest":"Maynooth Medical","GP NearestID":"1","Average WalkTime":8.76,"Snap distance m":1}},{"type":"Feature","geometry":{"type":"Polygon","coordinates":[[[-6.565682733581323,53.36918477093454],[-6.56782666814205,53.36809854146605],[-6.567149919343404,53.36636863298097],[-6.564329405868259,53.365724959859875],[-6.562185540804318,53.366811158900916],[-6.562862119716344,53.36854106148887],[-6.565682733581323,53.36918477093454]]]},"properties":{"hex_id":"89182c1aea7ffff","Food&Drinks WalkTime":22.25,"Food&Drinks Nearest":"LANA","Food&Drinks NearestID":"27","Fitness WalkTime":33.93,"Fitness Nearest":"Glenroyal Gym","Fitness NearestID":"2","Supplies WalkTime":22.77,"Supplies Nearest":"Centra","Supplies NearestID":"node/354880889","Pharmacy WalkTime":23.14,"Pharmacy Nearest":"St Patrick's Pharmacy","Pharmacy NearestID":"6","GP WalkTime":27.07,"GP Nearest":"Park Lodge Medical","GP NearestID":"4","Average WalkTime":25.83,"Snap distance m":6}},{"type":"Feature","geometry":{"type":"Polygon","coordinates":[[[-6.608005672474122,53.37883323014518],[-6.610149711082726,53.3777462793502],[-6.60947135041239,53.376016547642585],[-6.606649121054905,53.37537377252894],[-6.604505151733293,53.37646069283999],[-6.605183342479768,53.37819041874691],[-6.608005672474122,53.37883323014518]]]},"properties":{"hex_id":"89182c18593ffff","Food&Drinks WalkTime":15.58,"Food&Drinks Nearest":"Golden Palace Chinese Restaurant","Food&Drinks NearestID":"42","Fitness WalkTime":26.52,"Fitness Nearest":"Glenroyal Gym","Fitness NearestID":"2","Supplies WalkTime":12.41,"Supplies Nearest":"Spar","Supplies NearestID":"node/352674189","Pharmacy WalkTime":22.48,"Pharmacy Nearest":"Hickey's Pharmacy","Pharmacy NearestID":"4","GP WalkTime":10.08,"GP Nearest":"Dr Denise Nolan","GP NearestID":"6","Average WalkTime":17.41,"Snap distance m":15}},{"type":"Feature","geometry":{"type":"Polygon","coordinates":[[[-6.599539025582321,53.37690461620486],[-6.601683043590154,53.37581780971244],[-6.6010050053818,53.374088042564125],[-6.598183119079641,53.373445087726545],[-6.596039170400802,53.37453186374634],[-6.596717038692717,53.37626162507466],[-6.599539025582321,53.37690461620486]]]},"properties":{"hex_id":"89182c1ae5bffff","Food&Drinks WalkTime":6.77,"Food&Drinks Nearest":"Golden Palace Chinese Restaurant","Food&Drinks NearestID":"42","Fitness WalkTime":16.55,"Fitness Nearest":"Glenroyal Gym","Fitness NearestID":"2","Supplies WalkTime":4.86,"Supplies Nearest":"Spar","Supplies NearestID":"node/352674189","Pharmacy WalkTime":12.51,"Pharmacy Nearest":"Hickey's Pharmacy","Pharmacy NearestID":"4","GP WalkTime":2.53,"GP Nearest":"Dr Denise Nolan","GP NearestID":"6","Average WalkTime":8.64,"Snap distance m":45}},{"type":"Feature","geometry":{"type":"Polygon","coordinates":[[[-6.581707405895097,53.383867093589885],[-6.583851805729293,53.3827807952678],[-6.583174312183011,53.381051139721855],[-6.580352588768399,53.38040778834715],[-6.578208258379168,53.3814940562156],[-6.578885581957197,53.383223705910694],[-6.581707405895097,53.383867093589885]]]},"properties":{"hex_id":"89182c1a16fffff","Food&Drinks WalkTime":2.62,"Food&Drinks Nearest":"McDonald's","Food&Drinks NearestID":"1","Fitness WalkTime":5.0,"Fitness Nearest":"Anytime Fitness Gym","Fitness NearestID":"3","Supplies WalkTime":3.27,"Supplies Nearest":"Tesco Extra","Supplies NearestID":"way/30420550","Pharmacy WalkTime":3.13,"Pharmacy Nearest":"McCartan's","Pharmacy NearestID":"2","GP WalkTime":7.6,"GP Nearest":"Maynooth Medical","GP NearestID":"1","Average WalkTime":4.32,"Snap distance m":16}},{"type":"Feature","geometry":{"type":"Polygon","coordinates":[[[-6.586107718448651,53.37541884072762],[-6.588251764341185,53.37433229232906],[-6.587574218460024,53.37260249562196],[-6.584752796598244,53.37195925316096],[-6.582608820105238,53.37304577110415],[-6.58328619607209,53.37477556196204],[-6.586107718448651,53.37541884072762]]]},"properties":{"hex_id":"89182c1ae1bffff","Food&Drinks WalkTime":2.24,"Food&Drinks Nearest":"LANA","Food&Drinks NearestID":"27","Fitness WalkTime":13.92,"Fitness Nearest":"Glenroyal Gym","Fitness NearestID":"2","Supplies WalkTime":2.77,"Supplies Nearest":"Centra","Supplies NearestID":"node/354880889","Pharmacy WalkTime":3.13,"Pharmacy Nearest":"St Patrick's Pharmacy","Pharmacy NearestID":"6","GP WalkTime":7.06,"GP Nearest":"Park Lodge Medical","GP NearestID":"4","Average WalkTime":5.82,"Snap distance m":17}},{"type":"Feature","geometry":{"type":"Polygon","coordinates":[[[-6.593106638264142,53.38016464135092],[-6.595250822915477,53.37907803202552],[-6.594572972032538,53.37734831774983],[-6.591751106435598,53.37670521862833],[-6.589606991156956,53.37779179748764],[-6.590284672100172,53.37952150593284],[-6.593106638264142,53.38016464135092]]]},"properties":{"hex_id":"89182c1aecbffff","Food&Drinks WalkTime":3.36,"Food&Drinks Nearest":"The Roost","Food&Drinks NearestID":"4","Fitness WalkTime":8.47,"Fitness Nearest":"Glenroyal Gym","Fitness NearestID":"2","Supplies WalkTime":5.52,"Supplies Nearest":"SuperValu","Supplies NearestID":"node/335754695","Pharmacy WalkTime":5.56,"Pharmacy Nearest":"Callagy's","Pharmacy NearestID":"3","GP WalkTime":4.7,"GP Nearest":"Glenroyal Medical Centre","GP NearestID":"3","Average WalkTime":5.52,"Snap distance m":36}},{"type":"Feature","geometry":{"type":"Polygon","coordinates":[[[-6.579675247720424,53.37867809159267],[-6.58181946013442,53.377591740360856],[-6.5811421016235,53.375861996552096],[-6.578320700633761,53.37521860983312],[-6.576176557662974,53.37630493061608],[-6.576853746236362,53.37803466856515],[-6.579675247720424,53.37867809159267]]]},"properties":{"hex_id":"89182c1ae8bffff","Food&Drinks WalkTime":11.58,"Food&Drinks Nearest":"Shoda Market Cafe","Food&Drinks NearestID":"22","Fitness WalkTime":15.53,"Fitness Nearest":"Glenroyal Gym","Fitness NearestID":"2","Supplies WalkTime":13.09,"Supplies Nearest":"SuperValu","Supplies NearestID":"node/335754695","Pharmacy WalkTime":13.12,"Pharmacy Nearest":"Callagy's","Pharmacy NearestID":"3","GP WalkTime":7.61,"GP Nearest":"Park Lodge Medical","GP NearestID":"4","Average WalkTime":12.19,"Snap distance m":32}},{"type":"Feature","geometry":{"type":"Polygon","coordinates":[[[-6.580576962198645,53.36785622207465],[-6.582720751348127,53.36676965123406],[-6.582043492921045,53.36503972511714],[-6.579222615212982,53.36439637570649],[-6.577078895474695,53.36548291610184],[-6.577755984030894,53.36721283635134],[-6.580576962198645,53.36785622207465]]]},"properties":{"hex_id":"89182c1ae3bffff","Food&Drinks WalkTime":24.18,"Food&Drinks Nearest":"Romayo's","Food&Drinks NearestID":"43","Fitness WalkTime":35.95,"Fitness Nearest":"Glenroyal Gym","Fitness NearestID":"2","Supplies WalkTime":18.45,"Supplies Nearest":"Lidl","Supplies NearestID":"way/31574825","Pharmacy WalkTime":24.22,"Pharmacy Nearest":"St Patrick's Pharmacy","Pharmacy NearestID":"6","GP WalkTime":29.08,"GP Nearest":"Park Lodge Medical","GP NearestID":"4","Average WalkTime":26.38,"Snap distance m":56}},{"type":"Feature","geometry":{"type":"Polygon","coordinates":[[[-6.576176557662974,53.37630493061608],[-6.578320700633761,53.37521860983312],[-6.577643494586444,53.37348882483437],[-6.574822315490795,53.37284536648591],[-6.572678241976657,53.37393165682535],[-6.573355278099145,53.37566143595505],[-6.576176557662974,53.37630493061608]]]},"properties":{"hex_id":"89182c1ae8fffff","Food&Drinks WalkTime":14.79,"Food&Drinks Nearest":"Shoda Market Cafe","Food&Drinks NearestID":"22","Fitness WalkTime":18.73,"Fitness Nearest":"Glenroyal Gym","Fitness NearestID":"2","Supplies WalkTime":16.29,"Supplies Nearest":"SuperValu","Supplies NearestID":"node/335754695","Pharmacy WalkTime":16.33,"Pharmacy Nearest":"Callagy's","Pharmacy NearestID":"3","GP WalkTime":10.82,"GP Nearest":"Park Lodge Medical","GP NearestID":"4","Average WalkTime":15.39,"Snap distance m":295}},{"type":"Feature","geometry":{"type":"Polygon","coordinates":[[[-6.611506567638275,53.38120565444637],[-6.613650675520379,53.38011867316219],[-6.612972162275538,53.37838898271926],[-6.610149711082726,53.3777462793502],[-6.608005672474122,53.37883323014518],[-6.608684015782448,53.38056291479672],[-6.611506567638275,53.38120565444637]]]},"properties":{"hex_id":"89182c1a367ffff","Food&Drinks WalkTime":13.13,"Food&Drinks Nearest":"Maynooth Students’ Union Bar","Food&Drinks NearestID":"39","Fitness WalkTime":15.75,"Fitness Nearest":"Maynooth University Gym","Fitness NearestID":"1","Supplies WalkTime":14.12,"Supplies Nearest":"ALDI","Supplies NearestID":"way/30633224","Pharmacy WalkTime":17.94,"Pharmacy Nearest":"Hickey's Pharmacy","Pharmacy NearestID":"4","GP WalkTime":7.92,"GP Nearest":"The Leinster Clinic","GP NearestID":"5","Average WalkTime":13.78,"Snap distance m":60}},{"type":"Feature","geometry":{"type":"Polygon","coordinates":[[[-6.606539859156983,53.381649782250435],[-6.608684015782448,53.38056291479672],[-6.608005672474122,53.37883323014518],[-6.605183342479768,53.37819041874691],[-6.603039255156408,53.379277255717284],[-6.603717428522881,53.38100693456756],[-6.606539859156983,53.381649782250435]]]},"properties":{"hex_id":"89182c1a32bffff","Food&Drinks WalkTime":7.84,"Food&Drinks Nearest":"Starbucks","Food&Drinks NearestID":"41","Fitness WalkTime":14.85,"Fitness Nearest":"Maynooth University Gym","Fitness NearestID":"1","Supplies WalkTime":9.85,"Supplies Nearest":"ALDI","Supplies NearestID":"way/30633224","Pharmacy WalkTime":13.69,"Pharmacy Nearest":"Hickey's Pharmacy","Pharmacy NearestID":"4","GP WalkTime":12.1,"GP Nearest":"Student Medical Center","GP NearestID":"7","Average WalkTime":11.67,"Snap distance m":34}},{"type":"Feature","geometry":{"type":"Polygon","coordinates":[[[-6.596606659804162,53.38253737228425],[-6.598750913814762,53.38145073248737],[-6.598072910395406,53.3797210594483],[-6.595250822915477,53.37907803202552],[-6.593106638264142,53.38016464135092],[-6.593784471731084,53.38189430856888],[-6.596606659804162,53.38253737228425]]]},"properties":{"hex_id":"89182c1a337ffff","Food&Drinks WalkTime":3.0,"Food&Drinks Nearest":"Yeah Burgr","Food&Drinks NearestID":"2","Fitness WalkTime":11.19,"Fitness Nearest":"Maynooth University Gym","Fitness NearestID":"1","Supplies WalkTime":5.02,"Supplies Nearest":"Totu","Supplies NearestID":"node/1858818200","Pharmacy WalkTime":5.54,"Pharmacy Nearest":"Hickey's Pharmacy","Pharmacy NearestID":"4","GP WalkTime":4.82,"GP Nearest":"Manor Mills Medical","GP NearestID":"2","Average WalkTime":5.91,"Snap distance m":0}},{"type":"Feature","geometry":{"type":"Polygon","coordinates":[[[-6.587574218460024,53.37260249562196],[-6.589718146391689,53.371515863874784],[-6.589040583079562,53.369786020124295],[-6.586219261729702,53.36914281396792],[-6.584075403182437,53.37022941525911],[-6.584752796598244,53.37195925316096],[-6.587574218460024,53.37260249562196]]]},"properties":{"hex_id":"89182c1ae0bffff","Food&Drinks WalkTime":6.95,"Food&Drinks Nearest":"Romayo's","Food&Drinks NearestID":"43","Fitness WalkTime":19.25,"Fitness Nearest":"Glenroyal Gym","Fitness NearestID":"2","Supplies WalkTime":6.56,"Supplies Nearest":"Lidl","Supplies NearestID":"way/31574825","Pharmacy WalkTime":6.98,"Pharmacy Nearest":"St Patrick's Pharmacy","Pharmacy NearestID":"6","GP WalkTime":12.39,"GP Nearest":"Park Lodge Medical","GP NearestID":"4","Average WalkTime":10.43,"Snap distance m":15}},{"type":"Feature","geometry":{"type":"Polygon","coordinates":[[[-6.609144438023254,53.394843305303404],[-6.611289087413158,53.3937566269249],[-6.61061049097203,53.392027166052515],[-6.607787415159848,53.391384389341134],[-6.605642835090562,53.39247103722731],[-6.606321261510461,53.3942004923155],[-6.609144438023254,53.394843305303404]]]},"properties":{"hex_id":"89182c1a3c7ffff","Food&Drinks WalkTime":6.99,"Food&Drinks Nearest":"Subway","Food&Drinks NearestID":"28","Fitness WalkTime":8.09,"Fitness Nearest":"Maynooth University Gym","Fitness NearestID":"1","Supplies WalkTime":6.65,"Supplies Nearest":"Londis","Supplies NearestID":"node/405712189","Pharmacy WalkTime":12.54,"Pharmacy Nearest":"Hickey's Pharmacy","Pharmacy NearestID":"4","GP WalkTime":7.67,"GP Nearest":"Student Medical Center","GP NearestID":"7","Average WalkTime":8.39,"Snap distance m":405}},{"type":"Feature","geometry":{"type":"Polygon","coordinates":[[[-6.594572972032538,53.37734831774983],[-6.596717038692717,53.37626162507466],[-6.596039170400802,53.37453186374634],[-6.593217405368031,53.37388880092147],[-6.591073408065417,53.37497546312996],[-6.591751106435598,53.37670521862833],[-6.594572972032538,53.37734831774983]]]},"properties":{"hex_id":"89182c1ae53ffff","Food&Drinks WalkTime":9.78,"Food&Drinks Nearest":"Shoda Market Cafe","Food&Drinks NearestID":"22","Fitness WalkTime":13.73,"Fitness Nearest":"Glenroyal Gym","Fitness NearestID":"2","Supplies WalkTime":10.92,"Supplies Nearest":"Centra","Supplies NearestID":"node/354880889","Pharmacy WalkTime":10.55,"Pharmacy Nearest":"St Patrick's Pharmacy","Pharmacy NearestID":"6","GP WalkTime":6.94,"GP Nearest":"Park Lodge Medical","GP NearestID":"4","Average WalkTime":10.38,"Snap distance m":36}},{"type":"Feature","geometry":{"type":"Polygon","coordinates":[[[-6.592207095436305,53.39098552824437],[-6.594351703524862,53.389899138529195],[-6.593673752341462,53.38816960669253],[-6.590851363073501,53.3875264703921],[-6.588706824389653,53.388612829637545],[-6.58938460556665,53.39034235565147],[-6.592207095436305,53.39098552824437]]]},"properties":{"hex_id":"89182c1a3b3ffff","Food&Drinks WalkTime":13.04,"Food&Drinks Nearest":"Avenue","Food&Drinks NearestID":"9","Fitness WalkTime":18.9,"Fitness Nearest":"Anytime Fitness Gym","Fitness NearestID":"3","Supplies WalkTime":13.5,"Supplies Nearest":"Londis","Supplies NearestID":"node/359968059","Pharmacy WalkTime":13.75,"Pharmacy Nearest":"Mc Cormack's","Pharmacy NearestID":"1","GP WalkTime":13.78,"GP Nearest":"Maynooth Medical","GP NearestID":"1","Average WalkTime":14.59,"Snap distance m":10}},{"type":"Feature","geometry":{"type":"Polygon","coordinates":[[[-6.571774934221153,53.38475246544543],[-6.573919431101699,53.38366639476615],[-6.573242277497171,53.38193675093186],[-6.570420796988465,53.381293183645845],[-6.568276369610001,53.38237922388335],[-6.568953353235771,53.384108861846954],[-6.571774934221153,53.38475246544543]]]},"properties":{"hex_id":"89182c1a12bffff","Food&Drinks WalkTime":17.2,"Food&Drinks Nearest":"McDonald's","Food&Drinks NearestID":"1","Fitness WalkTime":19.53,"Fitness Nearest":"Anytime Fitness Gym","Fitness NearestID":"3","Supplies WalkTime":17.84,"Supplies Nearest":"Tesco Extra","Supplies NearestID":"way/30420550","Pharmacy WalkTime":17.7,"Pharmacy Nearest":"McCartan's","Pharmacy NearestID":"2","GP WalkTime":19.23,"GP Nearest":"Maynooth Medical","GP NearestID":"1","Average WalkTime":18.3,"Snap distance m":84}},{"type":"Feature","geometry":{"type":"Polygon","coordinates":[[[-6.588706824389653,53.388612829637545],[-6.590851363073501,53.3875264703921],[-6.590173564459534,53.38579689730506],[-6.587351397152983,53.385153689293894],[-6.585206927887245,53.38624001807496],[-6.585884556507543,53.38796958532988],[-6.588706824389653,53.388612829637545]]]},"properties":{"hex_id":"89182c1a3b7ffff","Food&Drinks WalkTime":11.33,"Food&Drinks Nearest":"Avenue","Food&Drinks NearestID":"9","Fitness WalkTime":17.18,"Fitness Nearest":"Anytime Fitness Gym","Fitness NearestID":"3","Supplies WalkTime":11.78,"Supplies Nearest":"Londis","Supplies NearestID":"node/359968059","Pharmacy WalkTime":12.04,"Pharmacy Nearest":"Mc Cormack's","Pharmacy NearestID":"1","GP WalkTime":12.06,"GP Nearest":"Maynooth Medical","GP NearestID":"1","Average WalkTime":12.88,"Snap distance m":4}},{"type":"Feature","geometry":{"type":"Polygon","coordinates":[[[-6.583739969226428,53.389055830741356],[-6.585884556507543,53.38796958532988],[-6.585206927887245,53.38624001807496],[-6.582384881982394,53.385596702071894],[-6.580240364147973,53.38668291702492],[-6.580917822769318,53.38841247843778],[-6.583739969226428,53.389055830741356]]]},"properties":{"hex_id":"89182c1a17bffff","Food&Drinks WalkTime":11.89,"Food&Drinks Nearest":"Avenue","Food&Drinks NearestID":"9","Fitness WalkTime":17.74,"Fitness Nearest":"Anytime Fitness Gym","Fitness NearestID":"3","Supplies WalkTime":12.34,"Supplies Nearest":"Londis","Supplies NearestID":"node/359968059","Pharmacy WalkTime":12.6,"Pharmacy Nearest":"Mc Cormack's","Pharmacy NearestID":"1","GP WalkTime":12.62,"GP Nearest":"Maynooth Medical","GP NearestID":"1","Average WalkTime":13.44,"Snap distance m":30}},{"type":"Feature","geometry":{"type":"Polygon","coordinates":[[[-6.603607826318622,53.38728249522789],[-6.605752219007403,53.38619579447206],[-6.605073910444085,53.3844662039481],[-6.602251379167414,53.383823319980664],[-6.600107055811013,53.38490999025431],[-6.600785194396501,53.3866395749759],[-6.603607826318622,53.38728249522789]]]},"properties":{"hex_id":"89182c1a307ffff","Food&Drinks WalkTime":2.46,"Food&Drinks Nearest":"Phoenix Restaurant","Food&Drinks NearestID":"36","Fitness WalkTime":1.36,"Fitness Nearest":"Maynooth University Gym","Fitness NearestID":"1","Supplies WalkTime":4.19,"Supplies Nearest":"Londis","Supplies NearestID":"node/405712189","Pharmacy WalkTime":11.47,"Pharmacy Nearest":"Hickey's Pharmacy","Pharmacy NearestID":"4","GP WalkTime":5.25,"GP Nearest":"Student Medical Center","GP NearestID":"7","Average WalkTime":4.95,"Snap distance m":1}},{"type":"Feature","geometry":{"type":"Polygon","coordinates":[[[-6.593673752341462,53.38816960669253],[-6.595818242394182,53.38708313361168],[-6.595140273791807,53.38535355470241],[-6.592317985122721,53.384710454694485],[-6.590173564459534,53.38579689730506],[-6.590851363073501,53.3875264703921],[-6.593673752341462,53.38816960669253]]]},"properties":{"hex_id":"89182c1a3a3ffff","Food&Drinks WalkTime":8.58,"Food&Drinks Nearest":"Coffee Mill","Food&Drinks NearestID":"29","Fitness WalkTime":16.29,"Fitness Nearest":"Maynooth University Gym","Fitness NearestID":"1","Supplies WalkTime":9.14,"Supplies Nearest":"ALDI","Supplies NearestID":"way/30633224","Pharmacy WalkTime":8.65,"Pharmacy Nearest":"Hickey's Pharmacy","Pharmacy NearestID":"4","GP WalkTime":7.66,"GP Nearest":"Manor Mills Medical","GP NearestID":"2","Average WalkTime":10.06,"Snap distance m":8}},{"type":"Feature","geometry":{"type":"Polygon","coordinates":[[[-6.585541850871944,53.36741292902722],[-6.587685591483298,53.36632624439312],[-6.587008163190584,53.36459631241875],[-6.584187164149733,53.363953070934244],[-6.582043492921045,53.36503972511714],[-6.582720751348127,53.36676965123406],[-6.585541850871944,53.36741292902722]]]},"properties":{"hex_id":"89182c1ae77ffff","Food&Drinks WalkTime":18.44,"Food&Drinks Nearest":"Romayo's","Food&Drinks NearestID":"43","Fitness WalkTime":30.2,"Fitness Nearest":"Glenroyal Gym","Fitness NearestID":"2","Supplies WalkTime":12.71,"Supplies Nearest":"Lidl","Supplies NearestID":"way/31574825","Pharmacy WalkTime":18.48,"Pharmacy Nearest":"St Patrick's Pharmacy","Pharmacy NearestID":"6","GP WalkTime":23.34,"GP Nearest":"Park Lodge Medical","GP NearestID":"4","Average WalkTime":20.63,"Snap distance m":0}},{"type":"Feature","geometry":{"type":"Polygon","coordinates":[[[-6.591073408065417,53.37497546312996],[-6.593217405368031,53.37388880092147],[-6.592539689577858,53.3721589983751],[-6.589718146391689,53.371515863874784],[-6.587574218460024,53.37260249562196],[-6.588251764341185,53.37433229232906],[-6.591073408065417,53.37497546312996]]]},"properties":{"hex_id":"89182c1ae57ffff","Food&Drinks WalkTime":4.54,"Food&Drinks Nearest":"Romayo's","Food&Drinks NearestID":"43","Fitness WalkTime":16.14,"Fitness Nearest":"Glenroyal Gym","Fitness NearestID":"2","Supplies WalkTime":4.21,"Supplies Nearest":"Centra","Supplies NearestID":"node/354880889","Pharmacy WalkTime":4.57,"Pharmacy Nearest":"St Patrick's Pharmacy","Pharmacy NearestID":"6","GP WalkTime":9.35,"GP Nearest":"Park Lodge Medical","GP NearestID":"4","Average WalkTime":7.76,"Snap distance m":14}},{"type":"Feature","geometry":{"type":"Polygon","coordinates":[[[-6.589273375194137,53.39661697999225],[-6.591418219383912,53.395530757023764],[-6.59074030305949,53.393801319347695],[-6.58791771258527,53.393158110462295],[-6.585772937830507,53.39424430296222],[-6.586450684112542,53.3959737348144],[-6.589273375194137,53.39661697999225]]]},"properties":{"hex_id":"89182c1a15bffff","Food&Drinks WalkTime":32.22,"Food&Drinks Nearest":"McDonald's","Food&Drinks NearestID":"1","Fitness WalkTime":34.56,"Fitness Nearest":"Anytime Fitness Gym","Fitness NearestID":"3","Supplies WalkTime":32.87,"Supplies Nearest":"Tesco Extra","Supplies NearestID":"way/30420550","Pharmacy WalkTime":32.73,"Pharmacy Nearest":"McCartan's","Pharmacy NearestID":"2","GP WalkTime":34.26,"GP Nearest":"Maynooth Medical","GP NearestID":"1","Average WalkTime":33.33,"Snap distance m":92}},{"type":"Feature","geometry":{"type":"Polygon","coordinates":[[[-6.602710156181675,53.398102945997735],[-6.604854972403665,53.39701646484125],[-6.604176563369737,53.3952870568394],[-6.601353508155947,53.39464413578703],[-6.59920876129832,53.39573058645773],[-6.59988700028772,53.39745998866489],[-6.602710156181675,53.398102945997735]]]},"properties":{"hex_id":"89182c1a39bffff","Food&Drinks WalkTime":21.55,"Food&Drinks Nearest":"Coffee Mill","Food&Drinks NearestID":"29","Fitness WalkTime":29.26,"Fitness Nearest":"Maynooth University Gym","Fitness NearestID":"1","Supplies WalkTime":22.12,"Supplies Nearest":"ALDI","Supplies NearestID":"way/30633224","Pharmacy WalkTime":21.63,"Pharmacy Nearest":"Hickey's Pharmacy","Pharmacy NearestID":"4","GP WalkTime":20.63,"GP Nearest":"Manor Mills Medical","GP NearestID":"2","Average WalkTime":23.04,"Snap distance m":25}},{"type":"Feature","geometry":{"type":"Polygon","coordinates":[[[-6.582608820105238,53.37304577110415],[-6.584752796598244,53.37195925316096],[-6.584075403182437,53.37022941525911],[-6.58125420317281,53.36958610115731],[-6.579110296092733,53.37067258865047],[-6.579787519606953,53.37240242069375],[-6.582608820105238,53.37304577110415]]]},"properties":{"hex_id":"89182c1ae03ffff","Food&Drinks WalkTime":6.35,"Food&Drinks Nearest":"LANA","Food&Drinks NearestID":"27","Fitness WalkTime":18.03,"Fitness Nearest":"Glenroyal Gym","Fitness NearestID":"2","Supplies WalkTime":6.87,"Supplies Nearest":"Centra","Supplies NearestID":"node/354880889","Pharmacy WalkTime":7.24,"Pharmacy Nearest":"St Patrick's Pharmacy","Pharmacy NearestID":"6","GP WalkTime":11.17,"GP Nearest":"Park Lodge Medical","GP NearestID":"4","Average WalkTime":9.93,"Snap distance m":53}},{"type":"Feature","geometry":{"type":"Polygon","coordinates":[[[-6.568276369610001,53.38237922388335],[-6.570420796988465,53.381293183645845],[-6.569743795856777,53.37956349862172],[-6.566922537310253,53.37891985971351],[-6.564778179447257,53.38000586951461],[-6.565455010612927,53.38173554865866],[-6.568276369610001,53.38237922388335]]]},"properties":{"hex_id":"89182c1a12fffff","Food&Drinks WalkTime":22.62,"Food&Drinks Nearest":"McDonald's","Food&Drinks NearestID":"1","Fitness WalkTime":24.95,"Fitness Nearest":"Anytime Fitness Gym","Fitness NearestID":"3","Supplies WalkTime":23.26,"Supplies Nearest":"Tesco Extra","Supplies NearestID":"way/30420550","Pharmacy WalkTime":23.12,"Pharmacy Nearest":"McCartan's","Pharmacy NearestID":"2","GP WalkTime":24.65,"GP Nearest":"Maynooth Medical","GP NearestID":"1","Average WalkTime":23.72,"Snap distance m":42}}]}